{"type":"FeatureCollection","features":[{"type":"Feature","properties":{"jobs":5,"pop":0,"pointCount":1,"homeWorkCommuteMedian":-1,"workHomeCommuteMedian":0},"geometry":{"type":"Polygon","coordinates":[[[-119.32282893839492,46.12722604151204],[-119.32282893839492,46.136219245149285],[-119.31383573475767,46.136219245149285],[-119.31383573475767,46.12722604151204],[-119.32282893839492,46.12722604151204]]]}},{"type":"Feature","properties":{"jobs":5,"pop":115,"pointCount":1,"homeWorkCommuteMedian":0,"workHomeCommuteMedian":0},"geometry":{"type":"Polygon","coordinates":[[[-119.32282893839492,46.16319885606102],[-119.32282893839492,46.17219205969827],[-119.31383573475767,46.17219205969827],[-119.31383573475767,46.16319885606102],[-119.32282893839492,46.16319885606102]]]}},{"type":"Feature","properties":{"jobs":65,"pop":965,"pointCount":1,"homeWorkCommuteMedian":0,"workHomeCommuteMedian":0},"geometry":{"type":"Polygon","coordinates":[[[-119.32282893839492,46.19017846697276],[-119.32282893839492,46.199171670610006],[-119.31383573475767,46.199171670610006],[-119.31383573475767,46.19017846697276],[-119.32282893839492,46.19017846697276]]]}},{"type":"Feature","properties":{"jobs":55,"pop":260,"pointCount":1,"homeWorkCommuteMedian":0,"workHomeCommuteMedian":0},"geometry":{"type":"Polygon","coordinates":[[[-119.32282893839492,46.2171580778845],[-119.32282893839492,46.226151281521744],[-119.31383573475767,46.226151281521744],[-119.31383573475767,46.2171580778845],[-119.32282893839492,46.2171580778845]]]}},{"type":"Feature","properties":{"jobs":500,"pop":15,"pointCount":1,"homeWorkCommuteMedian":0,"workHomeCommuteMedian":0},"geometry":{"type":"Polygon","coordinates":[[[-119.32282893839492,46.25313089243348],[-119.32282893839492,46.26212409607073],[-119.31383573475767,46.26212409607073],[-119.31383573475767,46.25313089243348],[-119.32282893839492,46.25313089243348]]]}},{"type":"Feature","properties":{"jobs":15,"pop":50,"pointCount":1,"homeWorkCommuteMedian":0,"workHomeCommuteMedian":0},"geometry":{"type":"Polygon","coordinates":[[[-119.32282893839492,46.271117299707974],[-119.32282893839492,46.28011050334522],[-119.31383573475767,46.28011050334522],[-119.31383573475767,46.271117299707974],[-119.32282893839492,46.271117299707974]]]}},{"type":"Feature","properties":{"jobs":120,"pop":175,"pointCount":1,"homeWorkCommuteMedian":0,"workHomeCommuteMedian":0},"geometry":{"type":"Polygon","coordinates":[[[-119.31383573475767,46.15420565242378],[-119.31383573475767,46.16319885606102],[-119.30484253112043,46.16319885606102],[-119.30484253112043,46.15420565242378],[-119.31383573475767,46.15420565242378]]]}},{"type":"Feature","properties":{"jobs":180,"pop":2615,"pointCount":1,"homeWorkCommuteMedian":0,"workHomeCommuteMedian":0},"geometry":{"type":"Polygon","coordinates":[[[-119.31383573475767,46.199171670610006],[-119.31383573475767,46.20816487424725],[-119.30484253112043,46.20816487424725],[-119.30484253112043,46.199171670610006],[-119.31383573475767,46.199171670610006]]]}},{"type":"Feature","properties":{"jobs":70,"pop":170,"pointCount":1,"homeWorkCommuteMedian":0,"workHomeCommuteMedian":0},"geometry":{"type":"Polygon","coordinates":[[[-119.31383573475767,46.23514448515899],[-119.31383573475767,46.244137688796236],[-119.30484253112043,46.244137688796236],[-119.30484253112043,46.23514448515899],[-119.31383573475767,46.23514448515899]]]}},{"type":"Feature","properties":{"jobs":5505,"pop":3115,"pointCount":3,"homeWorkCommuteMedian":0,"workHomeCommuteMedian":0},"geometry":{"type":"Polygon","coordinates":[[[-119.31383573475767,46.25313089243348],[-119.31383573475767,46.26212409607073],[-119.30484253112043,46.26212409607073],[-119.30484253112043,46.25313089243348],[-119.31383573475767,46.25313089243348]]]}},{"type":"Feature","properties":{"jobs":2775,"pop":155,"pointCount":1,"homeWorkCommuteMedian":0,"workHomeCommuteMedian":0},"geometry":{"type":"Polygon","coordinates":[[[-119.31383573475767,46.29809691061971],[-119.31383573475767,46.30709011425696],[-119.30484253112043,46.30709011425696],[-119.30484253112043,46.29809691061971],[-119.31383573475767,46.29809691061971]]]}},{"type":"Feature","properties":{"jobs":415,"pop":0,"pointCount":1,"homeWorkCommuteMedian":-1,"workHomeCommuteMedian":0},"geometry":{"type":"Polygon","coordinates":[[[-119.31383573475767,46.316083317894204],[-119.31383573475767,46.32507652153145],[-119.30484253112043,46.32507652153145],[-119.30484253112043,46.316083317894204],[-119.31383573475767,46.316083317894204]]]}},{"type":"Feature","properties":{"jobs":100,"pop":565,"pointCount":1,"homeWorkCommuteMedian":0,"workHomeCommuteMedian":0},"geometry":{"type":"Polygon","coordinates":[[[-119.30484253112043,46.2171580778845],[-119.30484253112043,46.226151281521744],[-119.29584932748318,46.226151281521744],[-119.29584932748318,46.2171580778845],[-119.30484253112043,46.2171580778845]]]}},{"type":"Feature","properties":{"jobs":45,"pop":2190,"pointCount":1,"homeWorkCommuteMedian":0,"workHomeCommuteMedian":0},"geometry":{"type":"Polygon","coordinates":[[[-119.30484253112043,46.244137688796236],[-119.30484253112043,46.25313089243348],[-119.29584932748318,46.25313089243348],[-119.29584932748318,46.244137688796236],[-119.30484253112043,46.244137688796236]]]}},{"type":"Feature","properties":{"jobs":345,"pop":235,"pointCount":1,"homeWorkCommuteMedian":0,"workHomeCommuteMedian":0},"geometry":{"type":"Polygon","coordinates":[[[-119.30484253112043,46.25313089243348],[-119.30484253112043,46.26212409607073],[-119.29584932748318,46.26212409607073],[-119.29584932748318,46.25313089243348],[-119.30484253112043,46.25313089243348]]]}},{"type":"Feature","properties":{"jobs":745,"pop":3585,"pointCount":1,"homeWorkCommuteMedian":0,"workHomeCommuteMedian":0},"geometry":{"type":"Polygon","coordinates":[[[-119.30484253112043,46.26212409607073],[-119.30484253112043,46.271117299707974],[-119.29584932748318,46.271117299707974],[-119.29584932748318,46.26212409607073],[-119.30484253112043,46.26212409607073]]]}},{"type":"Feature","properties":{"jobs":180,"pop":3415,"pointCount":1,"homeWorkCommuteMedian":0,"workHomeCommuteMedian":0},"geometry":{"type":"Polygon","coordinates":[[[-119.30484253112043,46.28011050334522],[-119.30484253112043,46.289103706982466],[-119.29584932748318,46.289103706982466],[-119.29584932748318,46.28011050334522],[-119.30484253112043,46.28011050334522]]]}},{"type":"Feature","properties":{"jobs":2050,"pop":3380,"pointCount":3,"homeWorkCommuteMedian":0,"workHomeCommuteMedian":0},"geometry":{"type":"Polygon","coordinates":[[[-119.30484253112043,46.289103706982466],[-119.30484253112043,46.29809691061971],[-119.29584932748318,46.29809691061971],[-119.29584932748318,46.289103706982466],[-119.30484253112043,46.289103706982466]]]}},{"type":"Feature","properties":{"jobs":1225,"pop":1550,"pointCount":1,"homeWorkCommuteMedian":0,"workHomeCommuteMedian":0},"geometry":{"type":"Polygon","coordinates":[[[-119.30484253112043,46.29809691061971],[-119.30484253112043,46.30709011425696],[-119.29584932748318,46.30709011425696],[-119.29584932748318,46.29809691061971],[-119.30484253112043,46.29809691061971]]]}},{"type":"Feature","properties":{"jobs":1235,"pop":55,"pointCount":1,"homeWorkCommuteMedian":0,"workHomeCommuteMedian":0},"geometry":{"type":"Polygon","coordinates":[[[-119.30484253112043,46.316083317894204],[-119.30484253112043,46.32507652153145],[-119.29584932748318,46.32507652153145],[-119.29584932748318,46.316083317894204],[-119.30484253112043,46.316083317894204]]]}},{"type":"Feature","properties":{"jobs":130,"pop":1680,"pointCount":1,"homeWorkCommuteMedian":0,"workHomeCommuteMedian":0},"geometry":{"type":"Polygon","coordinates":[[[-119.29584932748318,46.17219205969827],[-119.29584932748318,46.181185263335514],[-119.28685612384594,46.181185263335514],[-119.28685612384594,46.17219205969827],[-119.29584932748318,46.17219205969827]]]}},{"type":"Feature","properties":{"jobs":285,"pop":1220,"pointCount":1,"homeWorkCommuteMedian":0,"workHomeCommuteMedian":0},"geometry":{"type":"Polygon","coordinates":[[[-119.29584932748318,46.181185263335514],[-119.29584932748318,46.19017846697276],[-119.28685612384594,46.19017846697276],[-119.28685612384594,46.181185263335514],[-119.29584932748318,46.181185263335514]]]}},{"type":"Feature","properties":{"jobs":200,"pop":1065,"pointCount":1,"homeWorkCommuteMedian":0,"workHomeCommuteMedian":0},"geometry":{"type":"Polygon","coordinates":[[[-119.29584932748318,46.199171670610006],[-119.29584932748318,46.20816487424725],[-119.28685612384594,46.20816487424725],[-119.28685612384594,46.199171670610006],[-119.29584932748318,46.199171670610006]]]}},{"type":"Feature","properties":{"jobs":275,"pop":1085,"pointCount":1,"homeWorkCommuteMedian":0,"workHomeCommuteMedian":0},"geometry":{"type":"Polygon","coordinates":[[[-119.29584932748318,46.226151281521744],[-119.29584932748318,46.23514448515899],[-119.28685612384594,46.23514448515899],[-119.28685612384594,46.226151281521744],[-119.29584932748318,46.226151281521744]]]}},{"type":"Feature","properties":{"jobs":19220,"pop":4005,"pointCount":1,"homeWorkCommuteMedian":0,"workHomeCommuteMedian":0},"geometry":{"type":"Polygon","coordinates":[[[-119.29584932748318,46.244137688796236],[-119.29584932748318,46.25313089243348],[-119.28685612384594,46.25313089243348],[-119.28685612384594,46.244137688796236],[-119.29584932748318,46.244137688796236]]]}},{"type":"Feature","properties":{"jobs":940,"pop":735,"pointCount":1,"homeWorkCommuteMedian":0,"workHomeCommuteMedian":0},"geometry":{"type":"Polygon","coordinates":[[[-119.29584932748318,46.25313089243348],[-119.29584932748318,46.26212409607073],[-119.28685612384594,46.26212409607073],[-119.28685612384594,46.25313089243348],[-119.29584932748318,46.25313089243348]]]}},{"type":"Feature","properties":{"jobs":520,"pop":1125,"pointCount":1,"homeWorkCommuteMedian":0,"workHomeCommuteMedian":0},"geometry":{"type":"Polygon","coordinates":[[[-119.29584932748318,46.271117299707974],[-119.29584932748318,46.28011050334522],[-119.28685612384594,46.28011050334522],[-119.28685612384594,46.271117299707974],[-119.29584932748318,46.271117299707974]]]}},{"type":"Feature","properties":{"jobs":120,"pop":3830,"pointCount":1,"homeWorkCommuteMedian":0,"workHomeCommuteMedian":0},"geometry":{"type":"Polygon","coordinates":[[[-119.29584932748318,46.289103706982466],[-119.29584932748318,46.29809691061971],[-119.28685612384594,46.29809691061971],[-119.28685612384594,46.289103706982466],[-119.29584932748318,46.289103706982466]]]}},{"type":"Feature","properties":{"jobs":45,"pop":5,"pointCount":1,"homeWorkCommuteMedian":0,"workHomeCommuteMedian":0},"geometry":{"type":"Polygon","coordinates":[[[-119.28685612384594,46.12722604151204],[-119.28685612384594,46.136219245149285],[-119.27786292020869,46.136219245149285],[-119.27786292020869,46.12722604151204],[-119.28685612384594,46.12722604151204]]]}},{"type":"Feature","properties":{"jobs":5,"pop":0,"pointCount":1,"homeWorkCommuteMedian":-1,"workHomeCommuteMedian":0},"geometry":{"type":"Polygon","coordinates":[[[-119.28685612384594,46.15420565242378],[-119.28685612384594,46.16319885606102],[-119.27786292020869,46.16319885606102],[-119.27786292020869,46.15420565242378],[-119.28685612384594,46.15420565242378]]]}},{"type":"Feature","properties":{"jobs":925,"pop":740,"pointCount":2,"homeWorkCommuteMedian":0,"workHomeCommuteMedian":0},"geometry":{"type":"Polygon","coordinates":[[[-119.28685612384594,46.226151281521744],[-119.28685612384594,46.23514448515899],[-119.27786292020869,46.23514448515899],[-119.27786292020869,46.226151281521744],[-119.28685612384594,46.226151281521744]]]}},{"type":"Feature","properties":{"jobs":405,"pop":1080,"pointCount":1,"homeWorkCommuteMedian":0,"workHomeCommuteMedian":0},"geometry":{"type":"Polygon","coordinates":[[[-119.28685612384594,46.23514448515899],[-119.28685612384594,46.244137688796236],[-119.27786292020869,46.244137688796236],[-119.27786292020869,46.23514448515899],[-119.28685612384594,46.23514448515899]]]}},{"type":"Feature","properties":{"jobs":385,"pop":340,"pointCount":1,"homeWorkCommuteMedian":0,"workHomeCommuteMedian":0},"geometry":{"type":"Polygon","coordinates":[[[-119.28685612384594,46.25313089243348],[-119.28685612384594,46.26212409607073],[-119.27786292020869,46.26212409607073],[-119.27786292020869,46.25313089243348],[-119.28685612384594,46.25313089243348]]]}},{"type":"Feature","properties":{"jobs":1630,"pop":1330,"pointCount":2,"homeWorkCommuteMedian":0,"workHomeCommuteMedian":0},"geometry":{"type":"Polygon","coordinates":[[[-119.28685612384594,46.26212409607073],[-119.28685612384594,46.271117299707974],[-119.27786292020869,46.271117299707974],[-119.27786292020869,46.26212409607073],[-119.28685612384594,46.26212409607073]]]}},{"type":"Feature","properties":{"jobs":4010,"pop":570,"pointCount":2,"homeWorkCommuteMedian":0,"workHomeCommuteMedian":0},"geometry":{"type":"Polygon","coordinates":[[[-119.28685612384594,46.271117299707974],[-119.28685612384594,46.28011050334522],[-119.27786292020869,46.28011050334522],[-119.27786292020869,46.271117299707974],[-119.28685612384594,46.271117299707974]]]}},{"type":"Feature","properties":{"jobs":16005,"pop":805,"pointCount":1,"homeWorkCommuteMedian":0,"workHomeCommuteMedian":0},"geometry":{"type":"Polygon","coordinates":[[[-119.28685612384594,46.28011050334522],[-119.28685612384594,46.289103706982466],[-119.27786292020869,46.289103706982466],[-119.27786292020869,46.28011050334522],[-119.28685612384594,46.28011050334522]]]}},{"type":"Feature","properties":{"jobs":90,"pop":4220,"pointCount":1,"homeWorkCommuteMedian":0,"workHomeCommuteMedian":0},"geometry":{"type":"Polygon","coordinates":[[[-119.28685612384594,46.289103706982466],[-119.28685612384594,46.29809691061971],[-119.27786292020869,46.29809691061971],[-119.27786292020869,46.289103706982466],[-119.28685612384594,46.289103706982466]]]}},{"type":"Feature","properties":{"jobs":1490,"pop":7060,"pointCount":2,"homeWorkCommuteMedian":0,"workHomeCommuteMedian":0},"geometry":{"type":"Polygon","coordinates":[[[-119.28685612384594,46.29809691061971],[-119.28685612384594,46.30709011425696],[-119.27786292020869,46.30709011425696],[-119.27786292020869,46.29809691061971],[-119.28685612384594,46.29809691061971]]]}},{"type":"Feature","properties":{"jobs":18105,"pop":100,"pointCount":3,"homeWorkCommuteMedian":0,"workHomeCommuteMedian":0},"geometry":{"type":"Polygon","coordinates":[[[-119.28685612384594,46.316083317894204],[-119.28685612384594,46.32507652153145],[-119.27786292020869,46.32507652153145],[-119.27786292020869,46.316083317894204],[-119.28685612384594,46.316083317894204]]]}},{"type":"Feature","properties":{"jobs":795,"pop":1265,"pointCount":1,"homeWorkCommuteMedian":0,"workHomeCommuteMedian":0},"geometry":{"type":"Polygon","coordinates":[[[-119.27786292020869,46.19017846697276],[-119.27786292020869,46.199171670610006],[-119.26886971657144,46.199171670610006],[-119.26886971657144,46.19017846697276],[-119.27786292020869,46.19017846697276]]]}},{"type":"Feature","properties":{"jobs":255,"pop":1415,"pointCount":1,"homeWorkCommuteMedian":0,"workHomeCommuteMedian":0},"geometry":{"type":"Polygon","coordinates":[[[-119.27786292020869,46.226151281521744],[-119.27786292020869,46.23514448515899],[-119.26886971657144,46.23514448515899],[-119.26886971657144,46.226151281521744],[-119.27786292020869,46.226151281521744]]]}},{"type":"Feature","properties":{"jobs":1770,"pop":1760,"pointCount":2,"homeWorkCommuteMedian":0,"workHomeCommuteMedian":0},"geometry":{"type":"Polygon","coordinates":[[[-119.27786292020869,46.26212409607073],[-119.27786292020869,46.271117299707974],[-119.26886971657144,46.271117299707974],[-119.26886971657144,46.26212409607073],[-119.27786292020869,46.26212409607073]]]}},{"type":"Feature","properties":{"jobs":7605,"pop":490,"pointCount":3,"homeWorkCommuteMedian":0,"workHomeCommuteMedian":0},"geometry":{"type":"Polygon","coordinates":[[[-119.27786292020869,46.271117299707974],[-119.27786292020869,46.28011050334522],[-119.26886971657144,46.28011050334522],[-119.26886971657144,46.271117299707974],[-119.27786292020869,46.271117299707974]]]}},{"type":"Feature","properties":{"jobs":3840,"pop":600,"pointCount":2,"homeWorkCommuteMedian":0,"workHomeCommuteMedian":0},"geometry":{"type":"Polygon","coordinates":[[[-119.27786292020869,46.28011050334522],[-119.27786292020869,46.289103706982466],[-119.26886971657144,46.289103706982466],[-119.26886971657144,46.28011050334522],[-119.27786292020869,46.28011050334522]]]}},{"type":"Feature","properties":{"jobs":1685,"pop":810,"pointCount":2,"homeWorkCommuteMedian":0,"workHomeCommuteMedian":0},"geometry":{"type":"Polygon","coordinates":[[[-119.27786292020869,46.289103706982466],[-119.27786292020869,46.29809691061971],[-119.26886971657144,46.29809691061971],[-119.26886971657144,46.289103706982466],[-119.27786292020869,46.289103706982466]]]}},{"type":"Feature","properties":{"jobs":1360,"pop":2075,"pointCount":2,"homeWorkCommuteMedian":0,"workHomeCommuteMedian":0},"geometry":{"type":"Polygon","coordinates":[[[-119.27786292020869,46.29809691061971],[-119.27786292020869,46.30709011425696],[-119.26886971657144,46.30709011425696],[-119.26886971657144,46.29809691061971],[-119.27786292020869,46.29809691061971]]]}},{"type":"Feature","properties":{"jobs":155,"pop":6105,"pointCount":2,"homeWorkCommuteMedian":0,"workHomeCommuteMedian":0},"geometry":{"type":"Polygon","coordinates":[[[-119.27786292020869,46.30709011425696],[-119.27786292020869,46.316083317894204],[-119.26886971657144,46.316083317894204],[-119.26886971657144,46.30709011425696],[-119.27786292020869,46.30709011425696]]]}},{"type":"Feature","properties":{"jobs":6270,"pop":315,"pointCount":1,"homeWorkCommuteMedian":0,"workHomeCommuteMedian":0},"geometry":{"type":"Polygon","coordinates":[[[-119.27786292020869,46.316083317894204],[-119.27786292020869,46.32507652153145],[-119.26886971657144,46.32507652153145],[-119.26886971657144,46.316083317894204],[-119.27786292020869,46.316083317894204]]]}},{"type":"Feature","properties":{"jobs":15,"pop":0,"pointCount":1,"homeWorkCommuteMedian":-1,"workHomeCommuteMedian":0},"geometry":{"type":"Polygon","coordinates":[[[-119.26886971657144,46.136219245149285],[-119.26886971657144,46.14521244878653],[-119.2598765129342,46.14521244878653],[-119.2598765129342,46.136219245149285],[-119.26886971657144,46.136219245149285]]]}},{"type":"Feature","properties":{"jobs":30,"pop":15,"pointCount":1,"homeWorkCommuteMedian":0,"workHomeCommuteMedian":0},"geometry":{"type":"Polygon","coordinates":[[[-119.26886971657144,46.17219205969827],[-119.26886971657144,46.181185263335514],[-119.2598765129342,46.181185263335514],[-119.2598765129342,46.17219205969827],[-119.26886971657144,46.17219205969827]]]}},{"type":"Feature","properties":{"jobs":285,"pop":975,"pointCount":1,"homeWorkCommuteMedian":0,"workHomeCommuteMedian":0},"geometry":{"type":"Polygon","coordinates":[[[-119.26886971657144,46.19017846697276],[-119.26886971657144,46.199171670610006],[-119.2598765129342,46.199171670610006],[-119.2598765129342,46.19017846697276],[-119.26886971657144,46.19017846697276]]]}},{"type":"Feature","properties":{"jobs":35,"pop":1170,"pointCount":1,"homeWorkCommuteMedian":0,"workHomeCommuteMedian":0},"geometry":{"type":"Polygon","coordinates":[[[-119.26886971657144,46.199171670610006],[-119.26886971657144,46.20816487424725],[-119.2598765129342,46.20816487424725],[-119.2598765129342,46.199171670610006],[-119.26886971657144,46.199171670610006]]]}},{"type":"Feature","properties":{"jobs":170,"pop":3610,"pointCount":2,"homeWorkCommuteMedian":0,"workHomeCommuteMedian":0},"geometry":{"type":"Polygon","coordinates":[[[-119.26886971657144,46.20816487424725],[-119.26886971657144,46.2171580778845],[-119.2598765129342,46.2171580778845],[-119.2598765129342,46.20816487424725],[-119.26886971657144,46.20816487424725]]]}},{"type":"Feature","properties":{"jobs":870,"pop":3595,"pointCount":2,"homeWorkCommuteMedian":0,"workHomeCommuteMedian":0},"geometry":{"type":"Polygon","coordinates":[[[-119.26886971657144,46.2171580778845],[-119.26886971657144,46.226151281521744],[-119.2598765129342,46.226151281521744],[-119.2598765129342,46.2171580778845],[-119.26886971657144,46.2171580778845]]]}},{"type":"Feature","properties":{"jobs":935,"pop":1180,"pointCount":1,"homeWorkCommuteMedian":0,"workHomeCommuteMedian":0},"geometry":{"type":"Polygon","coordinates":[[[-119.26886971657144,46.226151281521744],[-119.26886971657144,46.23514448515899],[-119.2598765129342,46.23514448515899],[-119.2598765129342,46.226151281521744],[-119.26886971657144,46.226151281521744]]]}},{"type":"Feature","properties":{"jobs":1130,"pop":2840,"pointCount":2,"homeWorkCommuteMedian":0,"workHomeCommuteMedian":0},"geometry":{"type":"Polygon","coordinates":[[[-119.26886971657144,46.23514448515899],[-119.26886971657144,46.244137688796236],[-119.2598765129342,46.244137688796236],[-119.2598765129342,46.23514448515899],[-119.26886971657144,46.23514448515899]]]}},{"type":"Feature","properties":{"jobs":2425,"pop":3145,"pointCount":2,"homeWorkCommuteMedian":0,"workHomeCommuteMedian":0},"geometry":{"type":"Polygon","coordinates":[[[-119.26886971657144,46.25313089243348],[-119.26886971657144,46.26212409607073],[-119.2598765129342,46.26212409607073],[-119.2598765129342,46.25313089243348],[-119.26886971657144,46.25313089243348]]]}},{"type":"Feature","properties":{"jobs":345,"pop":375,"pointCount":1,"homeWorkCommuteMedian":0,"workHomeCommuteMedian":0},"geometry":{"type":"Polygon","coordinates":[[[-119.26886971657144,46.26212409607073],[-119.26886971657144,46.271117299707974],[-119.2598765129342,46.271117299707974],[-119.2598765129342,46.26212409607073],[-119.26886971657144,46.26212409607073]]]}},{"type":"Feature","properties":{"jobs":3000,"pop":0,"pointCount":1,"homeWorkCommuteMedian":-1,"workHomeCommuteMedian":0},"geometry":{"type":"Polygon","coordinates":[[[-119.26886971657144,46.28011050334522],[-119.26886971657144,46.289103706982466],[-119.2598765129342,46.289103706982466],[-119.2598765129342,46.28011050334522],[-119.26886971657144,46.28011050334522]]]}},{"type":"Feature","properties":{"jobs":950,"pop":605,"pointCount":1,"homeWorkCommuteMedian":0,"workHomeCommuteMedian":0},"geometry":{"type":"Polygon","coordinates":[[[-119.2598765129342,46.199171670610006],[-119.2598765129342,46.20816487424725],[-119.25088330929695,46.20816487424725],[-119.25088330929695,46.199171670610006],[-119.2598765129342,46.199171670610006]]]}},{"type":"Feature","properties":{"jobs":470,"pop":1270,"pointCount":1,"homeWorkCommuteMedian":0,"workHomeCommuteMedian":0},"geometry":{"type":"Polygon","coordinates":[[[-119.2598765129342,46.226151281521744],[-119.2598765129342,46.23514448515899],[-119.25088330929695,46.23514448515899],[-119.25088330929695,46.226151281521744],[-119.2598765129342,46.226151281521744]]]}},{"type":"Feature","properties":{"jobs":15,"pop":5,"pointCount":1,"homeWorkCommuteMedian":0,"workHomeCommuteMedian":0},"geometry":{"type":"Polygon","coordinates":[[[-119.25088330929695,46.15420565242378],[-119.25088330929695,46.16319885606102],[-119.2418901056597,46.16319885606102],[-119.2418901056597,46.15420565242378],[-119.25088330929695,46.15420565242378]]]}},{"type":"Feature","properties":{"jobs":2005,"pop":3415,"pointCount":1,"homeWorkCommuteMedian":0,"workHomeCommuteMedian":0},"geometry":{"type":"Polygon","coordinates":[[[-119.25088330929695,46.2171580778845],[-119.25088330929695,46.226151281521744],[-119.2418901056597,46.226151281521744],[-119.2418901056597,46.2171580778845],[-119.25088330929695,46.2171580778845]]]}},{"type":"Feature","properties":{"jobs":280,"pop":2060,"pointCount":1,"homeWorkCommuteMedian":0,"workHomeCommuteMedian":0},"geometry":{"type":"Polygon","coordinates":[[[-119.25088330929695,46.226151281521744],[-119.25088330929695,46.23514448515899],[-119.2418901056597,46.23514448515899],[-119.2418901056597,46.226151281521744],[-119.25088330929695,46.226151281521744]]]}},{"type":"Feature","properties":{"jobs":235,"pop":995,"pointCount":1,"homeWorkCommuteMedian":0,"workHomeCommuteMedian":0},"geometry":{"type":"Polygon","coordinates":[[[-119.25088330929695,46.289103706982466],[-119.25088330929695,46.29809691061971],[-119.2418901056597,46.29809691061971],[-119.2418901056597,46.289103706982466],[-119.25088330929695,46.289103706982466]]]}},{"type":"Feature","properties":{"jobs":85,"pop":40,"pointCount":1,"homeWorkCommuteMedian":0,"workHomeCommuteMedian":0},"geometry":{"type":"Polygon","coordinates":[[[-119.25088330929695,46.30709011425696],[-119.25088330929695,46.316083317894204],[-119.2418901056597,46.316083317894204],[-119.2418901056597,46.30709011425696],[-119.25088330929695,46.30709011425696]]]}},{"type":"Feature","properties":{"jobs":380,"pop":720,"pointCount":1,"homeWorkCommuteMedian":0,"workHomeCommuteMedian":0},"geometry":{"type":"Polygon","coordinates":[[[-119.2418901056597,46.199171670610006],[-119.2418901056597,46.20816487424725],[-119.23289690202246,46.20816487424725],[-119.23289690202246,46.199171670610006],[-119.2418901056597,46.199171670610006]]]}},{"type":"Feature","properties":{"jobs":990,"pop":3395,"pointCount":2,"homeWorkCommuteMedian":0,"workHomeCommuteMedian":0},"geometry":{"type":"Polygon","coordinates":[[[-119.2418901056597,46.20816487424725],[-119.2418901056597,46.2171580778845],[-119.23289690202246,46.2171580778845],[-119.23289690202246,46.20816487424725],[-119.2418901056597,46.20816487424725]]]}},{"type":"Feature","properties":{"jobs":5700,"pop":9180,"pointCount":4,"homeWorkCommuteMedian":0,"workHomeCommuteMedian":0},"geometry":{"type":"Polygon","coordinates":[[[-119.2418901056597,46.2171580778845],[-119.2418901056597,46.226151281521744],[-119.23289690202246,46.226151281521744],[-119.23289690202246,46.2171580778845],[-119.2418901056597,46.2171580778845]]]}},{"type":"Feature","properties":{"jobs":3605,"pop":210,"pointCount":2,"homeWorkCommuteMedian":0,"workHomeCommuteMedian":0},"geometry":{"type":"Polygon","coordinates":[[[-119.2418901056597,46.226151281521744],[-119.2418901056597,46.23514448515899],[-119.23289690202246,46.23514448515899],[-119.23289690202246,46.226151281521744],[-119.2418901056597,46.226151281521744]]]}},{"type":"Feature","properties":{"jobs":800,"pop":115,"pointCount":1,"homeWorkCommuteMedian":0,"workHomeCommuteMedian":0},"geometry":{"type":"Polygon","coordinates":[[[-119.2418901056597,46.23514448515899],[-119.2418901056597,46.244137688796236],[-119.23289690202246,46.244137688796236],[-119.23289690202246,46.23514448515899],[-119.2418901056597,46.23514448515899]]]}},{"type":"Feature","properties":{"jobs":745,"pop":220,"pointCount":1,"homeWorkCommuteMedian":0,"workHomeCommuteMedian":0},"geometry":{"type":"Polygon","coordinates":[[[-119.2418901056597,46.271117299707974],[-119.2418901056597,46.28011050334522],[-119.23289690202246,46.28011050334522],[-119.23289690202246,46.271117299707974],[-119.2418901056597,46.271117299707974]]]}},{"type":"Feature","properties":{"jobs":310,"pop":1260,"pointCount":1,"homeWorkCommuteMedian":0,"workHomeCommuteMedian":0},"geometry":{"type":"Polygon","coordinates":[[[-119.23289690202246,46.199171670610006],[-119.23289690202246,46.20816487424725],[-119.22390369838521,46.20816487424725],[-119.22390369838521,46.199171670610006],[-119.23289690202246,46.199171670610006]]]}},{"type":"Feature","properties":{"jobs":865,"pop":790,"pointCount":1,"homeWorkCommuteMedian":0,"workHomeCommuteMedian":0},"geometry":{"type":"Polygon","coordinates":[[[-119.23289690202246,46.20816487424725],[-119.23289690202246,46.2171580778845],[-119.22390369838521,46.2171580778845],[-119.22390369838521,46.20816487424725],[-119.23289690202246,46.20816487424725]]]}},{"type":"Feature","properties":{"jobs":6630,"pop":2860,"pointCount":4,"homeWorkCommuteMedian":0,"workHomeCommuteMedian":0},"geometry":{"type":"Polygon","coordinates":[[[-119.23289690202246,46.2171580778845],[-119.23289690202246,46.226151281521744],[-119.22390369838521,46.226151281521744],[-119.22390369838521,46.2171580778845],[-119.23289690202246,46.2171580778845]]]}},{"type":"Feature","properties":{"jobs":2615,"pop":820,"pointCount":1,"homeWorkCommuteMedian":0,"workHomeCommuteMedian":0},"geometry":{"type":"Polygon","coordinates":[[[-119.23289690202246,46.23514448515899],[-119.23289690202246,46.244137688796236],[-119.22390369838521,46.244137688796236],[-119.22390369838521,46.23514448515899],[-119.23289690202246,46.23514448515899]]]}},{"type":"Feature","properties":{"jobs":95,"pop":20,"pointCount":1,"homeWorkCommuteMedian":0,"workHomeCommuteMedian":0},"geometry":{"type":"Polygon","coordinates":[[[-119.23289690202246,46.29809691061971],[-119.23289690202246,46.30709011425696],[-119.22390369838521,46.30709011425696],[-119.22390369838521,46.29809691061971],[-119.23289690202246,46.29809691061971]]]}},{"type":"Feature","properties":{"jobs":1320,"pop":175,"pointCount":1,"homeWorkCommuteMedian":0,"workHomeCommuteMedian":0},"geometry":{"type":"Polygon","coordinates":[[[-119.22390369838521,46.17219205969827],[-119.22390369838521,46.181185263335514],[-119.21491049474797,46.181185263335514],[-119.21491049474797,46.17219205969827],[-119.22390369838521,46.17219205969827]]]}},{"type":"Feature","properties":{"jobs":190,"pop":2400,"pointCount":2,"homeWorkCommuteMedian":0,"workHomeCommuteMedian":0},"geometry":{"type":"Polygon","coordinates":[[[-119.22390369838521,46.199171670610006],[-119.22390369838521,46.20816487424725],[-119.21491049474797,46.20816487424725],[-119.21491049474797,46.199171670610006],[-119.22390369838521,46.199171670610006]]]}},{"type":"Feature","properties":{"jobs":7135,"pop":385,"pointCount":3,"homeWorkCommuteMedian":0,"workHomeCommuteMedian":0},"geometry":{"type":"Polygon","coordinates":[[[-119.22390369838521,46.20816487424725],[-119.22390369838521,46.2171580778845],[-119.21491049474797,46.2171580778845],[-119.21491049474797,46.20816487424725],[-119.22390369838521,46.20816487424725]]]}},{"type":"Feature","properties":{"jobs":7605,"pop":640,"pointCount":6,"homeWorkCommuteMedian":0,"workHomeCommuteMedian":0},"geometry":{"type":"Polygon","coordinates":[[[-119.22390369838521,46.2171580778845],[-119.22390369838521,46.226151281521744],[-119.21491049474797,46.226151281521744],[-119.21491049474797,46.2171580778845],[-119.22390369838521,46.2171580778845]]]}},{"type":"Feature","properties":{"jobs":3290,"pop":940,"pointCount":1,"homeWorkCommuteMedian":0,"workHomeCommuteMedian":0},"geometry":{"type":"Polygon","coordinates":[[[-119.22390369838521,46.226151281521744],[-119.22390369838521,46.23514448515899],[-119.21491049474797,46.23514448515899],[-119.21491049474797,46.226151281521744],[-119.22390369838521,46.226151281521744]]]}},{"type":"Feature","properties":{"jobs":380,"pop":1790,"pointCount":1,"homeWorkCommuteMedian":0,"workHomeCommuteMedian":0},"geometry":{"type":"Polygon","coordinates":[[[-119.22390369838521,46.26212409607073],[-119.22390369838521,46.271117299707974],[-119.21491049474797,46.271117299707974],[-119.21491049474797,46.26212409607073],[-119.22390369838521,46.26212409607073]]]}},{"type":"Feature","properties":{"jobs":2045,"pop":185,"pointCount":1,"homeWorkCommuteMedian":0,"workHomeCommuteMedian":0},"geometry":{"type":"Polygon","coordinates":[[[-119.22390369838521,46.271117299707974],[-119.22390369838521,46.28011050334522],[-119.21491049474797,46.28011050334522],[-119.21491049474797,46.271117299707974],[-119.22390369838521,46.271117299707974]]]}},{"type":"Feature","properties":{"jobs":140,"pop":5,"pointCount":1,"homeWorkCommuteMedian":0,"workHomeCommuteMedian":0},"geometry":{"type":"Polygon","coordinates":[[[-119.22390369838521,46.316083317894204],[-119.22390369838521,46.32507652153145],[-119.21491049474797,46.32507652153145],[-119.21491049474797,46.316083317894204],[-119.22390369838521,46.316083317894204]]]}},{"type":"Feature","properties":{"jobs":35,"pop":1520,"pointCount":1,"homeWorkCommuteMedian":0,"workHomeCommuteMedian":0},"geometry":{"type":"Polygon","coordinates":[[[-119.21491049474797,46.19017846697276],[-119.21491049474797,46.199171670610006],[-119.20591729111072,46.199171670610006],[-119.20591729111072,46.19017846697276],[-119.21491049474797,46.19017846697276]]]}},{"type":"Feature","properties":{"jobs":2870,"pop":360,"pointCount":3,"homeWorkCommuteMedian":0,"workHomeCommuteMedian":0},"geometry":{"type":"Polygon","coordinates":[[[-119.21491049474797,46.20816487424725],[-119.21491049474797,46.2171580778845],[-119.20591729111072,46.2171580778845],[-119.20591729111072,46.20816487424725],[-119.21491049474797,46.20816487424725]]]}},{"type":"Feature","properties":{"jobs":3740,"pop":320,"pointCount":2,"homeWorkCommuteMedian":0,"workHomeCommuteMedian":0},"geometry":{"type":"Polygon","coordinates":[[[-119.21491049474797,46.2171580778845],[-119.21491049474797,46.226151281521744],[-119.20591729111072,46.226151281521744],[-119.20591729111072,46.2171580778845],[-119.21491049474797,46.2171580778845]]]}},{"type":"Feature","properties":{"jobs":930,"pop":5225,"pointCount":2,"homeWorkCommuteMedian":0,"workHomeCommuteMedian":0},"geometry":{"type":"Polygon","coordinates":[[[-119.21491049474797,46.26212409607073],[-119.21491049474797,46.271117299707974],[-119.20591729111072,46.271117299707974],[-119.20591729111072,46.26212409607073],[-119.21491049474797,46.26212409607073]]]}},{"type":"Feature","properties":{"jobs":690,"pop":1190,"pointCount":1,"homeWorkCommuteMedian":0,"workHomeCommuteMedian":0},"geometry":{"type":"Polygon","coordinates":[[[-119.21491049474797,46.271117299707974],[-119.21491049474797,46.28011050334522],[-119.20591729111072,46.28011050334522],[-119.20591729111072,46.271117299707974],[-119.21491049474797,46.271117299707974]]]}},{"type":"Feature","properties":{"jobs":0,"pop":30,"pointCount":1,"homeWorkCommuteMedian":0,"workHomeCommuteMedian":-1},"geometry":{"type":"Polygon","coordinates":[[[-119.21491049474797,46.289103706982466],[-119.21491049474797,46.29809691061971],[-119.20591729111072,46.29809691061971],[-119.20591729111072,46.289103706982466],[-119.21491049474797,46.289103706982466]]]}},{"type":"Feature","properties":{"jobs":0,"pop":0,"pointCount":1,"homeWorkCommuteMedian":-1,"workHomeCommuteMedian":-1},"geometry":{"type":"Polygon","coordinates":[[[-119.20591729111072,46.12722604151204],[-119.20591729111072,46.136219245149285],[-119.19692408747348,46.136219245149285],[-119.19692408747348,46.12722604151204],[-119.20591729111072,46.12722604151204]]]}},{"type":"Feature","properties":{"jobs":350,"pop":0,"pointCount":1,"homeWorkCommuteMedian":-1,"workHomeCommuteMedian":0},"geometry":{"type":"Polygon","coordinates":[[[-119.20591729111072,46.16319885606102],[-119.20591729111072,46.17219205969827],[-119.19692408747348,46.17219205969827],[-119.19692408747348,46.16319885606102],[-119.20591729111072,46.16319885606102]]]}},{"type":"Feature","properties":{"jobs":35,"pop":4210,"pointCount":2,"homeWorkCommuteMedian":0,"workHomeCommuteMedian":0},"geometry":{"type":"Polygon","coordinates":[[[-119.20591729111072,46.181185263335514],[-119.20591729111072,46.19017846697276],[-119.19692408747348,46.19017846697276],[-119.19692408747348,46.181185263335514],[-119.20591729111072,46.181185263335514]]]}},{"type":"Feature","properties":{"jobs":35,"pop":1820,"pointCount":1,"homeWorkCommuteMedian":0,"workHomeCommuteMedian":0},"geometry":{"type":"Polygon","coordinates":[[[-119.20591729111072,46.19017846697276],[-119.20591729111072,46.199171670610006],[-119.19692408747348,46.199171670610006],[-119.19692408747348,46.19017846697276],[-119.20591729111072,46.19017846697276]]]}},{"type":"Feature","properties":{"jobs":1295,"pop":1225,"pointCount":2,"homeWorkCommuteMedian":0,"workHomeCommuteMedian":0},"geometry":{"type":"Polygon","coordinates":[[[-119.20591729111072,46.20816487424725],[-119.20591729111072,46.2171580778845],[-119.19692408747348,46.2171580778845],[-119.19692408747348,46.20816487424725],[-119.20591729111072,46.20816487424725]]]}},{"type":"Feature","properties":{"jobs":1555,"pop":980,"pointCount":2,"homeWorkCommuteMedian":0,"workHomeCommuteMedian":0},"geometry":{"type":"Polygon","coordinates":[[[-119.20591729111072,46.2171580778845],[-119.20591729111072,46.226151281521744],[-119.19692408747348,46.226151281521744],[-119.19692408747348,46.2171580778845],[-119.20591729111072,46.2171580778845]]]}},{"type":"Feature","properties":{"jobs":715,"pop":315,"pointCount":1,"homeWorkCommuteMedian":0,"workHomeCommuteMedian":0},"geometry":{"type":"Polygon","coordinates":[[[-119.20591729111072,46.226151281521744],[-119.20591729111072,46.23514448515899],[-119.19692408747348,46.23514448515899],[-119.19692408747348,46.226151281521744],[-119.20591729111072,46.226151281521744]]]}},{"type":"Feature","properties":{"jobs":505,"pop":14410,"pointCount":3,"homeWorkCommuteMedian":0,"workHomeCommuteMedian":0},"geometry":{"type":"Polygon","coordinates":[[[-119.20591729111072,46.271117299707974],[-119.20591729111072,46.28011050334522],[-119.19692408747348,46.28011050334522],[-119.19692408747348,46.271117299707974],[-119.20591729111072,46.271117299707974]]]}},{"type":"Feature","properties":{"jobs":115,"pop":1815,"pointCount":1,"homeWorkCommuteMedian":0,"workHomeCommuteMedian":0},"geometry":{"type":"Polygon","coordinates":[[[-119.20591729111072,46.28011050334522],[-119.20591729111072,46.289103706982466],[-119.19692408747348,46.289103706982466],[-119.19692408747348,46.28011050334522],[-119.20591729111072,46.28011050334522]]]}},{"type":"Feature","properties":{"jobs":3470,"pop":110,"pointCount":1,"homeWorkCommuteMedian":0,"workHomeCommuteMedian":0},"geometry":{"type":"Polygon","coordinates":[[[-119.19692408747348,46.17219205969827],[-119.19692408747348,46.181185263335514],[-119.18793088383623,46.181185263335514],[-119.18793088383623,46.17219205969827],[-119.19692408747348,46.17219205969827]]]}},{"type":"Feature","properties":{"jobs":435,"pop":1295,"pointCount":1,"homeWorkCommuteMedian":0,"workHomeCommuteMedian":0},"geometry":{"type":"Polygon","coordinates":[[[-119.19692408747348,46.199171670610006],[-119.19692408747348,46.20816487424725],[-119.18793088383623,46.20816487424725],[-119.18793088383623,46.199171670610006],[-119.19692408747348,46.199171670610006]]]}},{"type":"Feature","properties":{"jobs":2345,"pop":4035,"pointCount":3,"homeWorkCommuteMedian":0,"workHomeCommuteMedian":0},"geometry":{"type":"Polygon","coordinates":[[[-119.19692408747348,46.20816487424725],[-119.19692408747348,46.2171580778845],[-119.18793088383623,46.2171580778845],[-119.18793088383623,46.20816487424725],[-119.19692408747348,46.20816487424725]]]}},{"type":"Feature","properties":{"jobs":680,"pop":395,"pointCount":1,"homeWorkCommuteMedian":0,"workHomeCommuteMedian":0},"geometry":{"type":"Polygon","coordinates":[[[-119.19692408747348,46.2171580778845],[-119.19692408747348,46.226151281521744],[-119.18793088383623,46.226151281521744],[-119.18793088383623,46.2171580778845],[-119.19692408747348,46.2171580778845]]]}},{"type":"Feature","properties":{"jobs":190,"pop":865,"pointCount":1,"homeWorkCommuteMedian":0,"workHomeCommuteMedian":0},"geometry":{"type":"Polygon","coordinates":[[[-119.19692408747348,46.244137688796236],[-119.19692408747348,46.25313089243348],[-119.18793088383623,46.25313089243348],[-119.18793088383623,46.244137688796236],[-119.19692408747348,46.244137688796236]]]}},{"type":"Feature","properties":{"jobs":3000,"pop":2355,"pointCount":1,"homeWorkCommuteMedian":0,"workHomeCommuteMedian":0},"geometry":{"type":"Polygon","coordinates":[[[-119.19692408747348,46.26212409607073],[-119.19692408747348,46.271117299707974],[-119.18793088383623,46.271117299707974],[-119.18793088383623,46.26212409607073],[-119.19692408747348,46.26212409607073]]]}},{"type":"Feature","properties":{"jobs":795,"pop":575,"pointCount":1,"homeWorkCommuteMedian":0,"workHomeCommuteMedian":0},"geometry":{"type":"Polygon","coordinates":[[[-119.19692408747348,46.271117299707974],[-119.19692408747348,46.28011050334522],[-119.18793088383623,46.28011050334522],[-119.18793088383623,46.271117299707974],[-119.19692408747348,46.271117299707974]]]}},{"type":"Feature","properties":{"jobs":370,"pop":190,"pointCount":1,"homeWorkCommuteMedian":0,"workHomeCommuteMedian":0},"geometry":{"type":"Polygon","coordinates":[[[-119.18793088383623,46.17219205969827],[-119.18793088383623,46.181185263335514],[-119.17893768019898,46.181185263335514],[-119.17893768019898,46.17219205969827],[-119.18793088383623,46.17219205969827]]]}},{"type":"Feature","properties":{"jobs":965,"pop":685,"pointCount":1,"homeWorkCommuteMedian":0,"workHomeCommuteMedian":0},"geometry":{"type":"Polygon","coordinates":[[[-119.18793088383623,46.181185263335514],[-119.18793088383623,46.19017846697276],[-119.17893768019898,46.19017846697276],[-119.17893768019898,46.181185263335514],[-119.18793088383623,46.181185263335514]]]}},{"type":"Feature","properties":{"jobs":135,"pop":1350,"pointCount":1,"homeWorkCommuteMedian":0,"workHomeCommuteMedian":0},"geometry":{"type":"Polygon","coordinates":[[[-119.18793088383623,46.19017846697276],[-119.18793088383623,46.199171670610006],[-119.17893768019898,46.199171670610006],[-119.17893768019898,46.19017846697276],[-119.18793088383623,46.19017846697276]]]}},{"type":"Feature","properties":{"jobs":1925,"pop":6450,"pointCount":2,"homeWorkCommuteMedian":0,"workHomeCommuteMedian":0},"geometry":{"type":"Polygon","coordinates":[[[-119.18793088383623,46.20816487424725],[-119.18793088383623,46.2171580778845],[-119.17893768019898,46.2171580778845],[-119.17893768019898,46.20816487424725],[-119.18793088383623,46.20816487424725]]]}},{"type":"Feature","properties":{"jobs":4795,"pop":3060,"pointCount":2,"homeWorkCommuteMedian":0,"workHomeCommuteMedian":0},"geometry":{"type":"Polygon","coordinates":[[[-119.18793088383623,46.244137688796236],[-119.18793088383623,46.25313089243348],[-119.17893768019898,46.25313089243348],[-119.17893768019898,46.244137688796236],[-119.18793088383623,46.244137688796236]]]}},{"type":"Feature","properties":{"jobs":695,"pop":795,"pointCount":1,"homeWorkCommuteMedian":0,"workHomeCommuteMedian":0},"geometry":{"type":"Polygon","coordinates":[[[-119.18793088383623,46.271117299707974],[-119.18793088383623,46.28011050334522],[-119.17893768019898,46.28011050334522],[-119.17893768019898,46.271117299707974],[-119.18793088383623,46.271117299707974]]]}},{"type":"Feature","properties":{"jobs":1200,"pop":920,"pointCount":1,"homeWorkCommuteMedian":0,"workHomeCommuteMedian":0},"geometry":{"type":"Polygon","coordinates":[[[-119.18793088383623,46.28011050334522],[-119.18793088383623,46.289103706982466],[-119.17893768019898,46.289103706982466],[-119.17893768019898,46.28011050334522],[-119.18793088383623,46.28011050334522]]]}},{"type":"Feature","properties":{"jobs":1225,"pop":10,"pointCount":1,"homeWorkCommuteMedian":0,"workHomeCommuteMedian":0},"geometry":{"type":"Polygon","coordinates":[[[-119.18793088383623,46.316083317894204],[-119.18793088383623,46.32507652153145],[-119.17893768019898,46.32507652153145],[-119.17893768019898,46.316083317894204],[-119.18793088383623,46.316083317894204]]]}},{"type":"Feature","properties":{"jobs":0,"pop":0,"pointCount":1,"homeWorkCommuteMedian":-1,"workHomeCommuteMedian":-1},"geometry":{"type":"Polygon","coordinates":[[[-119.17893768019898,46.136219245149285],[-119.17893768019898,46.14521244878653],[-119.16994447656174,46.14521244878653],[-119.16994447656174,46.136219245149285],[-119.17893768019898,46.136219245149285]]]}},{"type":"Feature","properties":{"jobs":110,"pop":0,"pointCount":1,"homeWorkCommuteMedian":-1,"workHomeCommuteMedian":0},"geometry":{"type":"Polygon","coordinates":[[[-119.17893768019898,46.15420565242378],[-119.17893768019898,46.16319885606102],[-119.16994447656174,46.16319885606102],[-119.16994447656174,46.15420565242378],[-119.17893768019898,46.15420565242378]]]}},{"type":"Feature","properties":{"jobs":840,"pop":230,"pointCount":1,"homeWorkCommuteMedian":0,"workHomeCommuteMedian":0},"geometry":{"type":"Polygon","coordinates":[[[-119.17893768019898,46.181185263335514],[-119.17893768019898,46.19017846697276],[-119.16994447656174,46.19017846697276],[-119.16994447656174,46.181185263335514],[-119.17893768019898,46.181185263335514]]]}},{"type":"Feature","properties":{"jobs":1315,"pop":370,"pointCount":1,"homeWorkCommuteMedian":0,"workHomeCommuteMedian":0},"geometry":{"type":"Polygon","coordinates":[[[-119.17893768019898,46.19017846697276],[-119.17893768019898,46.199171670610006],[-119.16994447656174,46.199171670610006],[-119.16994447656174,46.19017846697276],[-119.17893768019898,46.19017846697276]]]}},{"type":"Feature","properties":{"jobs":120,"pop":4640,"pointCount":1,"homeWorkCommuteMedian":0,"workHomeCommuteMedian":0},"geometry":{"type":"Polygon","coordinates":[[[-119.17893768019898,46.199171670610006],[-119.17893768019898,46.20816487424725],[-119.16994447656174,46.20816487424725],[-119.16994447656174,46.199171670610006],[-119.17893768019898,46.199171670610006]]]}},{"type":"Feature","properties":{"jobs":2925,"pop":6945,"pointCount":2,"homeWorkCommuteMedian":0,"workHomeCommuteMedian":0},"geometry":{"type":"Polygon","coordinates":[[[-119.17893768019898,46.20816487424725],[-119.17893768019898,46.2171580778845],[-119.16994447656174,46.2171580778845],[-119.16994447656174,46.20816487424725],[-119.17893768019898,46.20816487424725]]]}},{"type":"Feature","properties":{"jobs":1420,"pop":795,"pointCount":1,"homeWorkCommuteMedian":0,"workHomeCommuteMedian":0},"geometry":{"type":"Polygon","coordinates":[[[-119.17893768019898,46.23514448515899],[-119.17893768019898,46.244137688796236],[-119.16994447656174,46.244137688796236],[-119.16994447656174,46.23514448515899],[-119.17893768019898,46.23514448515899]]]}},{"type":"Feature","properties":{"jobs":1860,"pop":6515,"pointCount":2,"homeWorkCommuteMedian":0,"workHomeCommuteMedian":0},"geometry":{"type":"Polygon","coordinates":[[[-119.17893768019898,46.26212409607073],[-119.17893768019898,46.271117299707974],[-119.16994447656174,46.271117299707974],[-119.16994447656174,46.26212409607073],[-119.17893768019898,46.26212409607073]]]}},{"type":"Feature","properties":{"jobs":245,"pop":3395,"pointCount":1,"homeWorkCommuteMedian":0,"workHomeCommuteMedian":0},"geometry":{"type":"Polygon","coordinates":[[[-119.17893768019898,46.271117299707974],[-119.17893768019898,46.28011050334522],[-119.16994447656174,46.28011050334522],[-119.16994447656174,46.271117299707974],[-119.17893768019898,46.271117299707974]]]}},{"type":"Feature","properties":{"jobs":345,"pop":685,"pointCount":1,"homeWorkCommuteMedian":0,"workHomeCommuteMedian":0},"geometry":{"type":"Polygon","coordinates":[[[-119.17893768019898,46.28011050334522],[-119.17893768019898,46.289103706982466],[-119.16994447656174,46.289103706982466],[-119.16994447656174,46.28011050334522],[-119.17893768019898,46.28011050334522]]]}},{"type":"Feature","properties":{"jobs":195,"pop":200,"pointCount":1,"homeWorkCommuteMedian":0,"workHomeCommuteMedian":0},"geometry":{"type":"Polygon","coordinates":[[[-119.16994447656174,46.17219205969827],[-119.16994447656174,46.181185263335514],[-119.16095127292449,46.181185263335514],[-119.16095127292449,46.17219205969827],[-119.16994447656174,46.17219205969827]]]}},{"type":"Feature","properties":{"jobs":1190,"pop":765,"pointCount":2,"homeWorkCommuteMedian":0,"workHomeCommuteMedian":0},"geometry":{"type":"Polygon","coordinates":[[[-119.16994447656174,46.181185263335514],[-119.16994447656174,46.19017846697276],[-119.16095127292449,46.19017846697276],[-119.16095127292449,46.181185263335514],[-119.16994447656174,46.181185263335514]]]}},{"type":"Feature","properties":{"jobs":275,"pop":1700,"pointCount":1,"homeWorkCommuteMedian":0,"workHomeCommuteMedian":0},"geometry":{"type":"Polygon","coordinates":[[[-119.16994447656174,46.19017846697276],[-119.16994447656174,46.199171670610006],[-119.16095127292449,46.199171670610006],[-119.16095127292449,46.19017846697276],[-119.16994447656174,46.19017846697276]]]}},{"type":"Feature","properties":{"jobs":765,"pop":2480,"pointCount":1,"homeWorkCommuteMedian":0,"workHomeCommuteMedian":0},"geometry":{"type":"Polygon","coordinates":[[[-119.16994447656174,46.199171670610006],[-119.16994447656174,46.20816487424725],[-119.16095127292449,46.20816487424725],[-119.16095127292449,46.199171670610006],[-119.16994447656174,46.199171670610006]]]}},{"type":"Feature","properties":{"jobs":3565,"pop":2580,"pointCount":2,"homeWorkCommuteMedian":0,"workHomeCommuteMedian":0},"geometry":{"type":"Polygon","coordinates":[[[-119.16994447656174,46.20816487424725],[-119.16994447656174,46.2171580778845],[-119.16095127292449,46.2171580778845],[-119.16095127292449,46.20816487424725],[-119.16994447656174,46.20816487424725]]]}},{"type":"Feature","properties":{"jobs":360,"pop":1715,"pointCount":2,"homeWorkCommuteMedian":0,"workHomeCommuteMedian":0},"geometry":{"type":"Polygon","coordinates":[[[-119.16994447656174,46.23514448515899],[-119.16994447656174,46.244137688796236],[-119.16095127292449,46.244137688796236],[-119.16095127292449,46.23514448515899],[-119.16994447656174,46.23514448515899]]]}},{"type":"Feature","properties":{"jobs":160,"pop":9310,"pointCount":2,"homeWorkCommuteMedian":0,"workHomeCommuteMedian":0},"geometry":{"type":"Polygon","coordinates":[[[-119.16994447656174,46.26212409607073],[-119.16994447656174,46.271117299707974],[-119.16095127292449,46.271117299707974],[-119.16095127292449,46.26212409607073],[-119.16994447656174,46.26212409607073]]]}},{"type":"Feature","properties":{"jobs":150,"pop":2685,"pointCount":1,"homeWorkCommuteMedian":0,"workHomeCommuteMedian":0},"geometry":{"type":"Polygon","coordinates":[[[-119.16994447656174,46.271117299707974],[-119.16994447656174,46.28011050334522],[-119.16095127292449,46.28011050334522],[-119.16095127292449,46.271117299707974],[-119.16994447656174,46.271117299707974]]]}},{"type":"Feature","properties":{"jobs":5,"pop":30,"pointCount":1,"homeWorkCommuteMedian":0,"workHomeCommuteMedian":0},"geometry":{"type":"Polygon","coordinates":[[[-119.16994447656174,46.289103706982466],[-119.16994447656174,46.29809691061971],[-119.16095127292449,46.29809691061971],[-119.16095127292449,46.289103706982466],[-119.16994447656174,46.289103706982466]]]}},{"type":"Feature","properties":{"jobs":680,"pop":3335,"pointCount":1,"homeWorkCommuteMedian":0,"workHomeCommuteMedian":0},"geometry":{"type":"Polygon","coordinates":[[[-119.16095127292449,46.17219205969827],[-119.16095127292449,46.181185263335514],[-119.15195806928725,46.181185263335514],[-119.15195806928725,46.17219205969827],[-119.16095127292449,46.17219205969827]]]}},{"type":"Feature","properties":{"jobs":1645,"pop":3845,"pointCount":2,"homeWorkCommuteMedian":0,"workHomeCommuteMedian":0},"geometry":{"type":"Polygon","coordinates":[[[-119.16095127292449,46.181185263335514],[-119.16095127292449,46.19017846697276],[-119.15195806928725,46.19017846697276],[-119.15195806928725,46.181185263335514],[-119.16095127292449,46.181185263335514]]]}},{"type":"Feature","properties":{"jobs":1505,"pop":1545,"pointCount":1,"homeWorkCommuteMedian":0,"workHomeCommuteMedian":0},"geometry":{"type":"Polygon","coordinates":[[[-119.16095127292449,46.19017846697276],[-119.16095127292449,46.199171670610006],[-119.15195806928725,46.199171670610006],[-119.15195806928725,46.19017846697276],[-119.16095127292449,46.19017846697276]]]}},{"type":"Feature","properties":{"jobs":775,"pop":495,"pointCount":1,"homeWorkCommuteMedian":0,"workHomeCommuteMedian":0},"geometry":{"type":"Polygon","coordinates":[[[-119.16095127292449,46.199171670610006],[-119.16095127292449,46.20816487424725],[-119.15195806928725,46.20816487424725],[-119.15195806928725,46.199171670610006],[-119.16095127292449,46.199171670610006]]]}},{"type":"Feature","properties":{"jobs":4265,"pop":1855,"pointCount":4,"homeWorkCommuteMedian":0,"workHomeCommuteMedian":0},"geometry":{"type":"Polygon","coordinates":[[[-119.16095127292449,46.20816487424725],[-119.16095127292449,46.2171580778845],[-119.15195806928725,46.2171580778845],[-119.15195806928725,46.20816487424725],[-119.16095127292449,46.20816487424725]]]}},{"type":"Feature","properties":{"jobs":400,"pop":1040,"pointCount":1,"homeWorkCommuteMedian":0,"workHomeCommuteMedian":0},"geometry":{"type":"Polygon","coordinates":[[[-119.16095127292449,46.25313089243348],[-119.16095127292449,46.26212409607073],[-119.15195806928725,46.26212409607073],[-119.15195806928725,46.25313089243348],[-119.16095127292449,46.25313089243348]]]}},{"type":"Feature","properties":{"jobs":65,"pop":4400,"pointCount":1,"homeWorkCommuteMedian":0,"workHomeCommuteMedian":0},"geometry":{"type":"Polygon","coordinates":[[[-119.16095127292449,46.271117299707974],[-119.16095127292449,46.28011050334522],[-119.15195806928725,46.28011050334522],[-119.15195806928725,46.271117299707974],[-119.16095127292449,46.271117299707974]]]}},{"type":"Feature","properties":{"jobs":120,"pop":3445,"pointCount":1,"homeWorkCommuteMedian":0,"workHomeCommuteMedian":0},"geometry":{"type":"Polygon","coordinates":[[[-119.15195806928725,46.17219205969827],[-119.15195806928725,46.181185263335514],[-119.14296486565,46.181185263335514],[-119.14296486565,46.17219205969827],[-119.15195806928725,46.17219205969827]]]}},{"type":"Feature","properties":{"jobs":50,"pop":1415,"pointCount":1,"homeWorkCommuteMedian":0,"workHomeCommuteMedian":0},"geometry":{"type":"Polygon","coordinates":[[[-119.15195806928725,46.19017846697276],[-119.15195806928725,46.199171670610006],[-119.14296486565,46.199171670610006],[-119.14296486565,46.19017846697276],[-119.15195806928725,46.19017846697276]]]}},{"type":"Feature","properties":{"jobs":745,"pop":1300,"pointCount":1,"homeWorkCommuteMedian":0,"workHomeCommuteMedian":0},"geometry":{"type":"Polygon","coordinates":[[[-119.15195806928725,46.20816487424725],[-119.15195806928725,46.2171580778845],[-119.14296486565,46.2171580778845],[-119.14296486565,46.20816487424725],[-119.15195806928725,46.20816487424725]]]}},{"type":"Feature","properties":{"jobs":1665,"pop":2145,"pointCount":1,"homeWorkCommuteMedian":0,"workHomeCommuteMedian":0},"geometry":{"type":"Polygon","coordinates":[[[-119.15195806928725,46.23514448515899],[-119.15195806928725,46.244137688796236],[-119.14296486565,46.244137688796236],[-119.14296486565,46.23514448515899],[-119.15195806928725,46.23514448515899]]]}},{"type":"Feature","properties":{"jobs":170,"pop":2165,"pointCount":1,"homeWorkCommuteMedian":0,"workHomeCommuteMedian":0},"geometry":{"type":"Polygon","coordinates":[[[-119.15195806928725,46.26212409607073],[-119.15195806928725,46.271117299707974],[-119.14296486565,46.271117299707974],[-119.14296486565,46.26212409607073],[-119.15195806928725,46.26212409607073]]]}},{"type":"Feature","properties":{"jobs":375,"pop":2640,"pointCount":1,"homeWorkCommuteMedian":0,"workHomeCommuteMedian":0},"geometry":{"type":"Polygon","coordinates":[[[-119.15195806928725,46.271117299707974],[-119.15195806928725,46.28011050334522],[-119.14296486565,46.28011050334522],[-119.14296486565,46.271117299707974],[-119.15195806928725,46.271117299707974]]]}},{"type":"Feature","properties":{"jobs":150,"pop":5,"pointCount":1,"homeWorkCommuteMedian":0,"workHomeCommuteMedian":0},"geometry":{"type":"Polygon","coordinates":[[[-119.15195806928725,46.289103706982466],[-119.15195806928725,46.29809691061971],[-119.14296486565,46.29809691061971],[-119.14296486565,46.289103706982466],[-119.15195806928725,46.289103706982466]]]}},{"type":"Feature","properties":{"jobs":395,"pop":1670,"pointCount":1,"homeWorkCommuteMedian":0,"workHomeCommuteMedian":0},"geometry":{"type":"Polygon","coordinates":[[[-119.14296486565,46.16319885606102],[-119.14296486565,46.17219205969827],[-119.13397166201275,46.17219205969827],[-119.13397166201275,46.16319885606102],[-119.14296486565,46.16319885606102]]]}},{"type":"Feature","properties":{"jobs":405,"pop":5115,"pointCount":1,"homeWorkCommuteMedian":0,"workHomeCommuteMedian":0},"geometry":{"type":"Polygon","coordinates":[[[-119.14296486565,46.181185263335514],[-119.14296486565,46.19017846697276],[-119.13397166201275,46.19017846697276],[-119.13397166201275,46.181185263335514],[-119.14296486565,46.181185263335514]]]}},{"type":"Feature","properties":{"jobs":355,"pop":9695,"pointCount":2,"homeWorkCommuteMedian":0,"workHomeCommuteMedian":0},"geometry":{"type":"Polygon","coordinates":[[[-119.14296486565,46.19017846697276],[-119.14296486565,46.199171670610006],[-119.13397166201275,46.199171670610006],[-119.13397166201275,46.19017846697276],[-119.14296486565,46.19017846697276]]]}},{"type":"Feature","properties":{"jobs":935,"pop":1085,"pointCount":1,"homeWorkCommuteMedian":0,"workHomeCommuteMedian":0},"geometry":{"type":"Polygon","coordinates":[[[-119.14296486565,46.199171670610006],[-119.14296486565,46.20816487424725],[-119.13397166201275,46.20816487424725],[-119.13397166201275,46.199171670610006],[-119.14296486565,46.199171670610006]]]}},{"type":"Feature","properties":{"jobs":2990,"pop":1460,"pointCount":1,"homeWorkCommuteMedian":0,"workHomeCommuteMedian":0},"geometry":{"type":"Polygon","coordinates":[[[-119.14296486565,46.20816487424725],[-119.14296486565,46.2171580778845],[-119.13397166201275,46.2171580778845],[-119.13397166201275,46.20816487424725],[-119.14296486565,46.20816487424725]]]}},{"type":"Feature","properties":{"jobs":965,"pop":1180,"pointCount":1,"homeWorkCommuteMedian":0,"workHomeCommuteMedian":0},"geometry":{"type":"Polygon","coordinates":[[[-119.14296486565,46.23514448515899],[-119.14296486565,46.244137688796236],[-119.13397166201275,46.244137688796236],[-119.13397166201275,46.23514448515899],[-119.14296486565,46.23514448515899]]]}},{"type":"Feature","properties":{"jobs":15,"pop":0,"pointCount":1,"homeWorkCommuteMedian":-1,"workHomeCommuteMedian":0},"geometry":{"type":"Polygon","coordinates":[[[-119.14296486565,46.316083317894204],[-119.14296486565,46.32507652153145],[-119.13397166201275,46.32507652153145],[-119.13397166201275,46.316083317894204],[-119.14296486565,46.316083317894204]]]}},{"type":"Feature","properties":{"jobs":130,"pop":2470,"pointCount":1,"homeWorkCommuteMedian":0,"workHomeCommuteMedian":0},"geometry":{"type":"Polygon","coordinates":[[[-119.13397166201275,46.181185263335514],[-119.13397166201275,46.19017846697276],[-119.12497845837551,46.19017846697276],[-119.12497845837551,46.181185263335514],[-119.13397166201275,46.181185263335514]]]}},{"type":"Feature","properties":{"jobs":100,"pop":5740,"pointCount":2,"homeWorkCommuteMedian":0,"workHomeCommuteMedian":0},"geometry":{"type":"Polygon","coordinates":[[[-119.13397166201275,46.19017846697276],[-119.13397166201275,46.199171670610006],[-119.12497845837551,46.199171670610006],[-119.12497845837551,46.19017846697276],[-119.13397166201275,46.19017846697276]]]}},{"type":"Feature","properties":{"jobs":1110,"pop":2050,"pointCount":1,"homeWorkCommuteMedian":0,"workHomeCommuteMedian":0},"geometry":{"type":"Polygon","coordinates":[[[-119.13397166201275,46.199171670610006],[-119.13397166201275,46.20816487424725],[-119.12497845837551,46.20816487424725],[-119.12497845837551,46.199171670610006],[-119.13397166201275,46.199171670610006]]]}},{"type":"Feature","properties":{"jobs":1095,"pop":510,"pointCount":1,"homeWorkCommuteMedian":0,"workHomeCommuteMedian":0},"geometry":{"type":"Polygon","coordinates":[[[-119.13397166201275,46.226151281521744],[-119.13397166201275,46.23514448515899],[-119.12497845837551,46.23514448515899],[-119.12497845837551,46.226151281521744],[-119.13397166201275,46.226151281521744]]]}},{"type":"Feature","properties":{"jobs":1585,"pop":2315,"pointCount":2,"homeWorkCommuteMedian":0,"workHomeCommuteMedian":0},"geometry":{"type":"Polygon","coordinates":[[[-119.13397166201275,46.23514448515899],[-119.13397166201275,46.244137688796236],[-119.12497845837551,46.244137688796236],[-119.12497845837551,46.23514448515899],[-119.13397166201275,46.23514448515899]]]}},{"type":"Feature","properties":{"jobs":1205,"pop":650,"pointCount":1,"homeWorkCommuteMedian":0,"workHomeCommuteMedian":0},"geometry":{"type":"Polygon","coordinates":[[[-119.13397166201275,46.244137688796236],[-119.13397166201275,46.25313089243348],[-119.12497845837551,46.25313089243348],[-119.12497845837551,46.244137688796236],[-119.13397166201275,46.244137688796236]]]}},{"type":"Feature","properties":{"jobs":95,"pop":2755,"pointCount":1,"homeWorkCommuteMedian":0,"workHomeCommuteMedian":0},"geometry":{"type":"Polygon","coordinates":[[[-119.12497845837551,46.17219205969827],[-119.12497845837551,46.181185263335514],[-119.11598525473826,46.181185263335514],[-119.11598525473826,46.17219205969827],[-119.12497845837551,46.17219205969827]]]}},{"type":"Feature","properties":{"jobs":1630,"pop":510,"pointCount":1,"homeWorkCommuteMedian":0,"workHomeCommuteMedian":0},"geometry":{"type":"Polygon","coordinates":[[[-119.12497845837551,46.19017846697276],[-119.12497845837551,46.199171670610006],[-119.11598525473826,46.199171670610006],[-119.11598525473826,46.19017846697276],[-119.12497845837551,46.19017846697276]]]}},{"type":"Feature","properties":{"jobs":17370,"pop":210,"pointCount":2,"homeWorkCommuteMedian":0,"workHomeCommuteMedian":0},"geometry":{"type":"Polygon","coordinates":[[[-119.12497845837551,46.199171670610006],[-119.12497845837551,46.20816487424725],[-119.11598525473826,46.20816487424725],[-119.11598525473826,46.199171670610006],[-119.12497845837551,46.199171670610006]]]}},{"type":"Feature","properties":{"jobs":5130,"pop":360,"pointCount":3,"homeWorkCommuteMedian":0,"workHomeCommuteMedian":0},"geometry":{"type":"Polygon","coordinates":[[[-119.12497845837551,46.20816487424725],[-119.12497845837551,46.2171580778845],[-119.11598525473826,46.2171580778845],[-119.11598525473826,46.20816487424725],[-119.12497845837551,46.20816487424725]]]}},{"type":"Feature","properties":{"jobs":2305,"pop":1770,"pointCount":2,"homeWorkCommuteMedian":0,"workHomeCommuteMedian":0},"geometry":{"type":"Polygon","coordinates":[[[-119.12497845837551,46.226151281521744],[-119.12497845837551,46.23514448515899],[-119.11598525473826,46.23514448515899],[-119.11598525473826,46.226151281521744],[-119.12497845837551,46.226151281521744]]]}},{"type":"Feature","properties":{"jobs":2715,"pop":6075,"pointCount":2,"homeWorkCommuteMedian":0,"workHomeCommuteMedian":0},"geometry":{"type":"Polygon","coordinates":[[[-119.12497845837551,46.23514448515899],[-119.12497845837551,46.244137688796236],[-119.11598525473826,46.244137688796236],[-119.11598525473826,46.23514448515899],[-119.12497845837551,46.23514448515899]]]}},{"type":"Feature","properties":{"jobs":2400,"pop":535,"pointCount":2,"homeWorkCommuteMedian":0,"workHomeCommuteMedian":0},"geometry":{"type":"Polygon","coordinates":[[[-119.12497845837551,46.244137688796236],[-119.12497845837551,46.25313089243348],[-119.11598525473826,46.25313089243348],[-119.11598525473826,46.244137688796236],[-119.12497845837551,46.244137688796236]]]}},{"type":"Feature","properties":{"jobs":840,"pop":110,"pointCount":1,"homeWorkCommuteMedian":0,"workHomeCommuteMedian":0},"geometry":{"type":"Polygon","coordinates":[[[-119.12497845837551,46.25313089243348],[-119.12497845837551,46.26212409607073],[-119.11598525473826,46.26212409607073],[-119.11598525473826,46.25313089243348],[-119.12497845837551,46.25313089243348]]]}},{"type":"Feature","properties":{"jobs":2700,"pop":0,"pointCount":1,"homeWorkCommuteMedian":-1,"workHomeCommuteMedian":0},"geometry":{"type":"Polygon","coordinates":[[[-119.12497845837551,46.26212409607073],[-119.12497845837551,46.271117299707974],[-119.11598525473826,46.271117299707974],[-119.11598525473826,46.26212409607073],[-119.12497845837551,46.26212409607073]]]}},{"type":"Feature","properties":{"jobs":0,"pop":0,"pointCount":1,"homeWorkCommuteMedian":-1,"workHomeCommuteMedian":-1},"geometry":{"type":"Polygon","coordinates":[[[-119.12497845837551,46.271117299707974],[-119.12497845837551,46.28011050334522],[-119.11598525473826,46.28011050334522],[-119.11598525473826,46.271117299707974],[-119.12497845837551,46.271117299707974]]]}},{"type":"Feature","properties":{"jobs":2585,"pop":0,"pointCount":1,"homeWorkCommuteMedian":-1,"workHomeCommuteMedian":0},"geometry":{"type":"Polygon","coordinates":[[[-119.12497845837551,46.29809691061971],[-119.12497845837551,46.30709011425696],[-119.11598525473826,46.30709011425696],[-119.11598525473826,46.29809691061971],[-119.12497845837551,46.29809691061971]]]}},{"type":"Feature","properties":{"jobs":65,"pop":60,"pointCount":1,"homeWorkCommuteMedian":0,"workHomeCommuteMedian":0},"geometry":{"type":"Polygon","coordinates":[[[-119.11598525473826,46.15420565242378],[-119.11598525473826,46.16319885606102],[-119.10699205110102,46.16319885606102],[-119.10699205110102,46.15420565242378],[-119.11598525473826,46.15420565242378]]]}},{"type":"Feature","properties":{"jobs":155,"pop":1800,"pointCount":1,"homeWorkCommuteMedian":0,"workHomeCommuteMedian":0},"geometry":{"type":"Polygon","coordinates":[[[-119.11598525473826,46.181185263335514],[-119.11598525473826,46.19017846697276],[-119.10699205110102,46.19017846697276],[-119.10699205110102,46.181185263335514],[-119.11598525473826,46.181185263335514]]]}},{"type":"Feature","properties":{"jobs":355,"pop":3175,"pointCount":1,"homeWorkCommuteMedian":0,"workHomeCommuteMedian":0},"geometry":{"type":"Polygon","coordinates":[[[-119.11598525473826,46.19017846697276],[-119.11598525473826,46.199171670610006],[-119.10699205110102,46.199171670610006],[-119.10699205110102,46.19017846697276],[-119.11598525473826,46.19017846697276]]]}},{"type":"Feature","properties":{"jobs":2020,"pop":165,"pointCount":1,"homeWorkCommuteMedian":0,"workHomeCommuteMedian":0},"geometry":{"type":"Polygon","coordinates":[[[-119.11598525473826,46.20816487424725],[-119.11598525473826,46.2171580778845],[-119.10699205110102,46.2171580778845],[-119.10699205110102,46.20816487424725],[-119.11598525473826,46.20816487424725]]]}},{"type":"Feature","properties":{"jobs":385,"pop":250,"pointCount":1,"homeWorkCommuteMedian":0,"workHomeCommuteMedian":0},"geometry":{"type":"Polygon","coordinates":[[[-119.11598525473826,46.2171580778845],[-119.11598525473826,46.226151281521744],[-119.10699205110102,46.226151281521744],[-119.10699205110102,46.2171580778845],[-119.11598525473826,46.2171580778845]]]}},{"type":"Feature","properties":{"jobs":800,"pop":3500,"pointCount":1,"homeWorkCommuteMedian":0,"workHomeCommuteMedian":0},"geometry":{"type":"Polygon","coordinates":[[[-119.11598525473826,46.23514448515899],[-119.11598525473826,46.244137688796236],[-119.10699205110102,46.244137688796236],[-119.10699205110102,46.23514448515899],[-119.11598525473826,46.23514448515899]]]}},{"type":"Feature","properties":{"jobs":825,"pop":170,"pointCount":1,"homeWorkCommuteMedian":0,"workHomeCommuteMedian":0},"geometry":{"type":"Polygon","coordinates":[[[-119.11598525473826,46.244137688796236],[-119.11598525473826,46.25313089243348],[-119.10699205110102,46.25313089243348],[-119.10699205110102,46.244137688796236],[-119.11598525473826,46.244137688796236]]]}},{"type":"Feature","properties":{"jobs":345,"pop":0,"pointCount":1,"homeWorkCommuteMedian":-1,"workHomeCommuteMedian":0},"geometry":{"type":"Polygon","coordinates":[[[-119.11598525473826,46.289103706982466],[-119.11598525473826,46.29809691061971],[-119.10699205110102,46.29809691061971],[-119.10699205110102,46.289103706982466],[-119.11598525473826,46.289103706982466]]]}},{"type":"Feature","properties":{"jobs":13500,"pop":1235,"pointCount":2,"homeWorkCommuteMedian":0,"workHomeCommuteMedian":0},"geometry":{"type":"Polygon","coordinates":[[[-119.10699205110102,46.226151281521744],[-119.10699205110102,46.23514448515899],[-119.09799884746377,46.23514448515899],[-119.09799884746377,46.226151281521744],[-119.10699205110102,46.226151281521744]]]}},{"type":"Feature","properties":{"jobs":895,"pop":6715,"pointCount":2,"homeWorkCommuteMedian":0,"workHomeCommuteMedian":0},"geometry":{"type":"Polygon","coordinates":[[[-119.10699205110102,46.23514448515899],[-119.10699205110102,46.244137688796236],[-119.09799884746377,46.244137688796236],[-119.09799884746377,46.23514448515899],[-119.10699205110102,46.23514448515899]]]}},{"type":"Feature","properties":{"jobs":2730,"pop":10,"pointCount":1,"homeWorkCommuteMedian":0,"workHomeCommuteMedian":0},"geometry":{"type":"Polygon","coordinates":[[[-119.10699205110102,46.271117299707974],[-119.10699205110102,46.28011050334522],[-119.09799884746377,46.28011050334522],[-119.09799884746377,46.271117299707974],[-119.10699205110102,46.271117299707974]]]}},{"type":"Feature","properties":{"jobs":365,"pop":0,"pointCount":1,"homeWorkCommuteMedian":-1,"workHomeCommuteMedian":0},"geometry":{"type":"Polygon","coordinates":[[[-119.10699205110102,46.28011050334522],[-119.10699205110102,46.289103706982466],[-119.09799884746377,46.289103706982466],[-119.09799884746377,46.28011050334522],[-119.10699205110102,46.28011050334522]]]}},{"type":"Feature","properties":{"jobs":685,"pop":800,"pointCount":1,"homeWorkCommuteMedian":0,"workHomeCommuteMedian":0},"geometry":{"type":"Polygon","coordinates":[[[-119.09799884746377,46.19017846697276],[-119.09799884746377,46.199171670610006],[-119.08900564382652,46.199171670610006],[-119.08900564382652,46.19017846697276],[-119.09799884746377,46.19017846697276]]]}},{"type":"Feature","properties":{"jobs":5380,"pop":1145,"pointCount":3,"homeWorkCommuteMedian":0,"workHomeCommuteMedian":0},"geometry":{"type":"Polygon","coordinates":[[[-119.09799884746377,46.226151281521744],[-119.09799884746377,46.23514448515899],[-119.08900564382652,46.23514448515899],[-119.08900564382652,46.226151281521744],[-119.09799884746377,46.226151281521744]]]}},{"type":"Feature","properties":{"jobs":4815,"pop":2920,"pointCount":3,"homeWorkCommuteMedian":0,"workHomeCommuteMedian":0},"geometry":{"type":"Polygon","coordinates":[[[-119.09799884746377,46.23514448515899],[-119.09799884746377,46.244137688796236],[-119.08900564382652,46.244137688796236],[-119.08900564382652,46.23514448515899],[-119.09799884746377,46.23514448515899]]]}},{"type":"Feature","properties":{"jobs":1370,"pop":75,"pointCount":1,"homeWorkCommuteMedian":0,"workHomeCommuteMedian":0},"geometry":{"type":"Polygon","coordinates":[[[-119.09799884746377,46.25313089243348],[-119.09799884746377,46.26212409607073],[-119.08900564382652,46.26212409607073],[-119.08900564382652,46.25313089243348],[-119.09799884746377,46.25313089243348]]]}},{"type":"Feature","properties":{"jobs":1280,"pop":0,"pointCount":1,"homeWorkCommuteMedian":-1,"workHomeCommuteMedian":0},"geometry":{"type":"Polygon","coordinates":[[[-119.09799884746377,46.26212409607073],[-119.09799884746377,46.271117299707974],[-119.08900564382652,46.271117299707974],[-119.08900564382652,46.26212409607073],[-119.09799884746377,46.26212409607073]]]}},{"type":"Feature","properties":{"jobs":0,"pop":65,"pointCount":1,"homeWorkCommuteMedian":0,"workHomeCommuteMedian":-1},"geometry":{"type":"Polygon","coordinates":[[[-119.08900564382652,46.20816487424725],[-119.08900564382652,46.2171580778845],[-119.08001244018928,46.2171580778845],[-119.08001244018928,46.20816487424725],[-119.08900564382652,46.20816487424725]]]}},{"type":"Feature","properties":{"jobs":925,"pop":345,"pointCount":1,"homeWorkCommuteMedian":0,"workHomeCommuteMedian":0},"geometry":{"type":"Polygon","coordinates":[[[-119.08900564382652,46.2171580778845],[-119.08900564382652,46.226151281521744],[-119.08001244018928,46.226151281521744],[-119.08001244018928,46.2171580778845],[-119.08900564382652,46.2171580778845]]]}},{"type":"Feature","properties":{"jobs":1595,"pop":285,"pointCount":1,"homeWorkCommuteMedian":0,"workHomeCommuteMedian":0},"geometry":{"type":"Polygon","coordinates":[[[-119.08900564382652,46.23514448515899],[-119.08900564382652,46.244137688796236],[-119.08001244018928,46.244137688796236],[-119.08001244018928,46.23514448515899],[-119.08900564382652,46.23514448515899]]]}},{"type":"Feature","properties":{"jobs":1005,"pop":95,"pointCount":1,"homeWorkCommuteMedian":0,"workHomeCommuteMedian":0},"geometry":{"type":"Polygon","coordinates":[[[-119.08900564382652,46.244137688796236],[-119.08900564382652,46.25313089243348],[-119.08001244018928,46.25313089243348],[-119.08001244018928,46.244137688796236],[-119.08900564382652,46.244137688796236]]]}},{"type":"Feature","properties":{"jobs":3585,"pop":0,"pointCount":2,"homeWorkCommuteMedian":-1,"workHomeCommuteMedian":0},"geometry":{"type":"Polygon","coordinates":[[[-119.08900564382652,46.26212409607073],[-119.08900564382652,46.271117299707974],[-119.08001244018928,46.271117299707974],[-119.08001244018928,46.26212409607073],[-119.08900564382652,46.26212409607073]]]}},{"type":"Feature","properties":{"jobs":0,"pop":0,"pointCount":1,"homeWorkCommuteMedian":-1,"workHomeCommuteMedian":-1},"geometry":{"type":"Polygon","coordinates":[[[-119.08900564382652,46.289103706982466],[-119.08900564382652,46.29809691061971],[-119.08001244018928,46.29809691061971],[-119.08001244018928,46.289103706982466],[-119.08900564382652,46.289103706982466]]]}},{"type":"Feature","properties":{"jobs":150,"pop":20,"pointCount":1,"homeWorkCommuteMedian":0,"workHomeCommuteMedian":0},"geometry":{"type":"Polygon","coordinates":[[[-119.08900564382652,46.316083317894204],[-119.08900564382652,46.32507652153145],[-119.08001244018928,46.32507652153145],[-119.08001244018928,46.316083317894204],[-119.08900564382652,46.316083317894204]]]}},{"type":"Feature","properties":{"jobs":0,"pop":20,"pointCount":1,"homeWorkCommuteMedian":0,"workHomeCommuteMedian":-1},"geometry":{"type":"Polygon","coordinates":[[[-119.08001244018928,46.136219245149285],[-119.08001244018928,46.14521244878653],[-119.07101923655203,46.14521244878653],[-119.07101923655203,46.136219245149285],[-119.08001244018928,46.136219245149285]]]}},{"type":"Feature","properties":{"jobs":175,"pop":510,"pointCount":1,"homeWorkCommuteMedian":0,"workHomeCommuteMedian":0},"geometry":{"type":"Polygon","coordinates":[[[-119.08001244018928,46.15420565242378],[-119.08001244018928,46.16319885606102],[-119.07101923655203,46.16319885606102],[-119.07101923655203,46.15420565242378],[-119.08001244018928,46.15420565242378]]]}},{"type":"Feature","properties":{"jobs":125,"pop":1680,"pointCount":1,"homeWorkCommuteMedian":0,"workHomeCommuteMedian":0},"geometry":{"type":"Polygon","coordinates":[[[-119.08001244018928,46.17219205969827],[-119.08001244018928,46.181185263335514],[-119.07101923655203,46.181185263335514],[-119.07101923655203,46.17219205969827],[-119.08001244018928,46.17219205969827]]]}},{"type":"Feature","properties":{"jobs":1335,"pop":265,"pointCount":1,"homeWorkCommuteMedian":0,"workHomeCommuteMedian":0},"geometry":{"type":"Polygon","coordinates":[[[-119.08001244018928,46.226151281521744],[-119.08001244018928,46.23514448515899],[-119.07101923655203,46.23514448515899],[-119.07101923655203,46.226151281521744],[-119.08001244018928,46.226151281521744]]]}},{"type":"Feature","properties":{"jobs":1320,"pop":1360,"pointCount":1,"homeWorkCommuteMedian":0,"workHomeCommuteMedian":0},"geometry":{"type":"Polygon","coordinates":[[[-119.08001244018928,46.23514448515899],[-119.08001244018928,46.244137688796236],[-119.07101923655203,46.244137688796236],[-119.07101923655203,46.23514448515899],[-119.08001244018928,46.23514448515899]]]}},{"type":"Feature","properties":{"jobs":2460,"pop":50,"pointCount":1,"homeWorkCommuteMedian":0,"workHomeCommuteMedian":0},"geometry":{"type":"Polygon","coordinates":[[[-119.08001244018928,46.244137688796236],[-119.08001244018928,46.25313089243348],[-119.07101923655203,46.25313089243348],[-119.07101923655203,46.244137688796236],[-119.08001244018928,46.244137688796236]]]}},{"type":"Feature","properties":{"jobs":275,"pop":835,"pointCount":1,"homeWorkCommuteMedian":0,"workHomeCommuteMedian":0},"geometry":{"type":"Polygon","coordinates":[[[-119.07101923655203,46.181185263335514],[-119.07101923655203,46.19017846697276],[-119.06202603291479,46.19017846697276],[-119.06202603291479,46.181185263335514],[-119.07101923655203,46.181185263335514]]]}},{"type":"Feature","properties":{"jobs":720,"pop":320,"pointCount":1,"homeWorkCommuteMedian":0,"workHomeCommuteMedian":0},"geometry":{"type":"Polygon","coordinates":[[[-119.07101923655203,46.19017846697276],[-119.07101923655203,46.199171670610006],[-119.06202603291479,46.199171670610006],[-119.06202603291479,46.19017846697276],[-119.07101923655203,46.19017846697276]]]}},{"type":"Feature","properties":{"jobs":985,"pop":680,"pointCount":1,"homeWorkCommuteMedian":0,"workHomeCommuteMedian":0},"geometry":{"type":"Polygon","coordinates":[[[-119.07101923655203,46.20816487424725],[-119.07101923655203,46.2171580778845],[-119.06202603291479,46.2171580778845],[-119.06202603291479,46.20816487424725],[-119.07101923655203,46.20816487424725]]]}},{"type":"Feature","properties":{"jobs":435,"pop":4645,"pointCount":1,"homeWorkCommuteMedian":0,"workHomeCommuteMedian":0},"geometry":{"type":"Polygon","coordinates":[[[-119.07101923655203,46.23514448515899],[-119.07101923655203,46.244137688796236],[-119.06202603291479,46.244137688796236],[-119.06202603291479,46.23514448515899],[-119.07101923655203,46.23514448515899]]]}},{"type":"Feature","properties":{"jobs":3145,"pop":0,"pointCount":1,"homeWorkCommuteMedian":-1,"workHomeCommuteMedian":0},"geometry":{"type":"Polygon","coordinates":[[[-119.07101923655203,46.25313089243348],[-119.07101923655203,46.26212409607073],[-119.06202603291479,46.26212409607073],[-119.06202603291479,46.25313089243348],[-119.07101923655203,46.25313089243348]]]}},{"type":"Feature","properties":{"jobs":0,"pop":10,"pointCount":1,"homeWorkCommuteMedian":0,"workHomeCommuteMedian":-1},"geometry":{"type":"Polygon","coordinates":[[[-119.07101923655203,46.316083317894204],[-119.07101923655203,46.32507652153145],[-119.06202603291479,46.32507652153145],[-119.06202603291479,46.316083317894204],[-119.07101923655203,46.316083317894204]]]}},{"type":"Feature","properties":{"jobs":20,"pop":290,"pointCount":1,"homeWorkCommuteMedian":0,"workHomeCommuteMedian":0},"geometry":{"type":"Polygon","coordinates":[[[-119.06202603291479,46.14521244878653],[-119.06202603291479,46.15420565242378],[-119.05303282927754,46.15420565242378],[-119.05303282927754,46.14521244878653],[-119.06202603291479,46.14521244878653]]]}},{"type":"Feature","properties":{"jobs":395,"pop":1810,"pointCount":1,"homeWorkCommuteMedian":0,"workHomeCommuteMedian":0},"geometry":{"type":"Polygon","coordinates":[[[-119.06202603291479,46.17219205969827],[-119.06202603291479,46.181185263335514],[-119.05303282927754,46.181185263335514],[-119.05303282927754,46.17219205969827],[-119.06202603291479,46.17219205969827]]]}},{"type":"Feature","properties":{"jobs":645,"pop":5425,"pointCount":2,"homeWorkCommuteMedian":0,"workHomeCommuteMedian":0},"geometry":{"type":"Polygon","coordinates":[[[-119.06202603291479,46.226151281521744],[-119.06202603291479,46.23514448515899],[-119.05303282927754,46.23514448515899],[-119.05303282927754,46.226151281521744],[-119.06202603291479,46.226151281521744]]]}},{"type":"Feature","properties":{"jobs":80,"pop":0,"pointCount":1,"homeWorkCommuteMedian":-1,"workHomeCommuteMedian":0},"geometry":{"type":"Polygon","coordinates":[[[-119.06202603291479,46.28011050334522],[-119.06202603291479,46.289103706982466],[-119.05303282927754,46.289103706982466],[-119.05303282927754,46.28011050334522],[-119.06202603291479,46.28011050334522]]]}},{"type":"Feature","properties":{"jobs":125,"pop":85,"pointCount":1,"homeWorkCommuteMedian":0,"workHomeCommuteMedian":0},"geometry":{"type":"Polygon","coordinates":[[[-119.05303282927754,46.136219245149285],[-119.05303282927754,46.14521244878653],[-119.0440396256403,46.14521244878653],[-119.0440396256403,46.136219245149285],[-119.05303282927754,46.136219245149285]]]}},{"type":"Feature","properties":{"jobs":40,"pop":1685,"pointCount":1,"homeWorkCommuteMedian":0,"workHomeCommuteMedian":0},"geometry":{"type":"Polygon","coordinates":[[[-119.05303282927754,46.15420565242378],[-119.05303282927754,46.16319885606102],[-119.0440396256403,46.16319885606102],[-119.0440396256403,46.15420565242378],[-119.05303282927754,46.15420565242378]]]}},{"type":"Feature","properties":{"jobs":25,"pop":355,"pointCount":1,"homeWorkCommuteMedian":0,"workHomeCommuteMedian":0},"geometry":{"type":"Polygon","coordinates":[[[-119.05303282927754,46.181185263335514],[-119.05303282927754,46.19017846697276],[-119.0440396256403,46.19017846697276],[-119.0440396256403,46.181185263335514],[-119.05303282927754,46.181185263335514]]]}},{"type":"Feature","properties":{"jobs":530,"pop":15,"pointCount":1,"homeWorkCommuteMedian":0,"workHomeCommuteMedian":0},"geometry":{"type":"Polygon","coordinates":[[[-119.05303282927754,46.23514448515899],[-119.05303282927754,46.244137688796236],[-119.0440396256403,46.244137688796236],[-119.0440396256403,46.23514448515899],[-119.05303282927754,46.23514448515899]]]}},{"type":"Feature","properties":{"jobs":315,"pop":435,"pointCount":1,"homeWorkCommuteMedian":0,"workHomeCommuteMedian":0},"geometry":{"type":"Polygon","coordinates":[[[-119.0440396256403,46.20816487424725],[-119.0440396256403,46.2171580778845],[-119.03504642200305,46.2171580778845],[-119.03504642200305,46.20816487424725],[-119.0440396256403,46.20816487424725]]]}},{"type":"Feature","properties":{"jobs":85,"pop":0,"pointCount":1,"homeWorkCommuteMedian":-1,"workHomeCommuteMedian":0},"geometry":{"type":"Polygon","coordinates":[[[-119.0440396256403,46.25313089243348],[-119.0440396256403,46.26212409607073],[-119.03504642200305,46.26212409607073],[-119.03504642200305,46.25313089243348],[-119.0440396256403,46.25313089243348]]]}},{"type":"Feature","properties":{"jobs":105,"pop":115,"pointCount":1,"homeWorkCommuteMedian":0,"workHomeCommuteMedian":0},"geometry":{"type":"Polygon","coordinates":[[[-119.03504642200305,46.12722604151204],[-119.03504642200305,46.136219245149285],[-119.0260532183658,46.136219245149285],[-119.0260532183658,46.12722604151204],[-119.03504642200305,46.12722604151204]]]}},{"type":"Feature","properties":{"jobs":120,"pop":560,"pointCount":1,"homeWorkCommuteMedian":0,"workHomeCommuteMedian":0},"geometry":{"type":"Polygon","coordinates":[[[-119.03504642200305,46.14521244878653],[-119.03504642200305,46.15420565242378],[-119.0260532183658,46.15420565242378],[-119.0260532183658,46.14521244878653],[-119.03504642200305,46.14521244878653]]]}},{"type":"Feature","properties":{"jobs":830,"pop":595,"pointCount":1,"homeWorkCommuteMedian":0,"workHomeCommuteMedian":0},"geometry":{"type":"Polygon","coordinates":[[[-119.03504642200305,46.15420565242378],[-119.03504642200305,46.16319885606102],[-119.0260532183658,46.16319885606102],[-119.0260532183658,46.15420565242378],[-119.03504642200305,46.15420565242378]]]}},{"type":"Feature","properties":{"jobs":45,"pop":0,"pointCount":1,"homeWorkCommuteMedian":-1,"workHomeCommuteMedian":0},"geometry":{"type":"Polygon","coordinates":[[[-119.03504642200305,46.271117299707974],[-119.03504642200305,46.28011050334522],[-119.0260532183658,46.28011050334522],[-119.0260532183658,46.271117299707974],[-119.03504642200305,46.271117299707974]]]}},{"type":"Feature","properties":{"jobs":100,"pop":50,"pointCount":1,"homeWorkCommuteMedian":0,"workHomeCommuteMedian":0},"geometry":{"type":"Polygon","coordinates":[[[-119.03504642200305,46.30709011425696],[-119.03504642200305,46.316083317894204],[-119.0260532183658,46.316083317894204],[-119.0260532183658,46.30709011425696],[-119.03504642200305,46.30709011425696]]]}},{"type":"Feature","properties":{"jobs":520,"pop":110,"pointCount":1,"homeWorkCommuteMedian":0,"workHomeCommuteMedian":0},"geometry":{"type":"Polygon","coordinates":[[[-119.0260532183658,46.16319885606102],[-119.0260532183658,46.17219205969827],[-119.01706001472856,46.17219205969827],[-119.01706001472856,46.16319885606102],[-119.0260532183658,46.16319885606102]]]}},{"type":"Feature","properties":{"jobs":380,"pop":100,"pointCount":1,"homeWorkCommuteMedian":0,"workHomeCommuteMedian":0},"geometry":{"type":"Polygon","coordinates":[[[-119.0260532183658,46.199171670610006],[-119.0260532183658,46.20816487424725],[-119.01706001472856,46.20816487424725],[-119.01706001472856,46.199171670610006],[-119.0260532183658,46.199171670610006]]]}},{"type":"Feature","properties":{"jobs":0,"pop":30,"pointCount":1,"homeWorkCommuteMedian":0,"workHomeCommuteMedian":-1},"geometry":{"type":"Polygon","coordinates":[[[-119.0260532183658,46.289103706982466],[-119.0260532183658,46.29809691061971],[-119.01706001472856,46.29809691061971],[-119.01706001472856,46.289103706982466],[-119.0260532183658,46.289103706982466]]]}},{"type":"Feature","properties":{"jobs":30,"pop":150,"pointCount":1,"homeWorkCommuteMedian":0,"workHomeCommuteMedian":0},"geometry":{"type":"Polygon","coordinates":[[[-119.01706001472856,46.181185263335514],[-119.01706001472856,46.19017846697276],[-119.00806681109131,46.19017846697276],[-119.00806681109131,46.181185263335514],[-119.01706001472856,46.181185263335514]]]}},{"type":"Feature","properties":{"jobs":160,"pop":50,"pointCount":1,"homeWorkCommuteMedian":0,"workHomeCommuteMedian":0},"geometry":{"type":"Polygon","coordinates":[[[-119.01706001472856,46.23514448515899],[-119.01706001472856,46.244137688796236],[-119.00806681109131,46.244137688796236],[-119.00806681109131,46.23514448515899],[-119.01706001472856,46.23514448515899]]]}},{"type":"Feature","properties":{"jobs":515,"pop":25,"pointCount":1,"homeWorkCommuteMedian":0,"workHomeCommuteMedian":0},"geometry":{"type":"Polygon","coordinates":[[[-119.00806681109131,46.136219245149285],[-119.00806681109131,46.14521244878653],[-118.99907360745406,46.14521244878653],[-118.99907360745406,46.136219245149285],[-119.00806681109131,46.136219245149285]]]}},{"type":"Feature","properties":{"jobs":0,"pop":85,"pointCount":1,"homeWorkCommuteMedian":0,"workHomeCommuteMedian":-1},"geometry":{"type":"Polygon","coordinates":[[[-119.00806681109131,46.15420565242378],[-119.00806681109131,46.16319885606102],[-118.99907360745406,46.16319885606102],[-118.99907360745406,46.15420565242378],[-119.00806681109131,46.15420565242378]]]}},{"type":"Feature","properties":{"jobs":540,"pop":200,"pointCount":1,"homeWorkCommuteMedian":0,"workHomeCommuteMedian":0},"geometry":{"type":"Polygon","coordinates":[[[-119.00806681109131,46.19017846697276],[-119.00806681109131,46.199171670610006],[-118.99907360745406,46.199171670610006],[-118.99907360745406,46.19017846697276],[-119.00806681109131,46.19017846697276]]]}},{"type":"Feature","properties":{"jobs":360,"pop":445,"pointCount":1,"homeWorkCommuteMedian":0,"workHomeCommuteMedian":0},"geometry":{"type":"Polygon","coordinates":[[[-118.99907360745406,46.20816487424725],[-118.99907360745406,46.2171580778845],[-118.99008040381682,46.2171580778845],[-118.99008040381682,46.20816487424725],[-118.99907360745406,46.20816487424725]]]}},{"type":"Feature","properties":{"jobs":0,"pop":10,"pointCount":1,"homeWorkCommuteMedian":0,"workHomeCommuteMedian":-1},"geometry":{"type":"Polygon","coordinates":[[[-118.99907360745406,46.26212409607073],[-118.99907360745406,46.271117299707974],[-118.99008040381682,46.271117299707974],[-118.99008040381682,46.26212409607073],[-118.99907360745406,46.26212409607073]]]}},{"type":"Feature","properties":{"jobs":2980,"pop":940,"pointCount":1,"homeWorkCommuteMedian":0,"workHomeCommuteMedian":0},"geometry":{"type":"Polygon","coordinates":[[[-118.99008040381682,46.19017846697276],[-118.99008040381682,46.199171670610006],[-118.98108720017957,46.199171670610006],[-118.98108720017957,46.19017846697276],[-118.99008040381682,46.19017846697276]]]}},{"type":"Feature","properties":{"jobs":570,"pop":40,"pointCount":1,"homeWorkCommuteMedian":0,"workHomeCommuteMedian":0},"geometry":{"type":"Polygon","coordinates":[[[-118.99008040381682,46.244137688796236],[-118.99008040381682,46.25313089243348],[-118.98108720017957,46.25313089243348],[-118.98108720017957,46.244137688796236],[-118.99008040381682,46.244137688796236]]]}},{"type":"Feature","properties":{"jobs":15,"pop":60,"pointCount":1,"homeWorkCommuteMedian":0,"workHomeCommuteMedian":0},"geometry":{"type":"Polygon","coordinates":[[[-118.99008040381682,46.289103706982466],[-118.99008040381682,46.29809691061971],[-118.98108720017957,46.29809691061971],[-118.98108720017957,46.289103706982466],[-118.99008040381682,46.289103706982466]]]}},{"type":"Feature","properties":{"jobs":140,"pop":310,"pointCount":1,"homeWorkCommuteMedian":0,"workHomeCommuteMedian":0},"geometry":{"type":"Polygon","coordinates":[[[-118.98108720017957,46.2171580778845],[-118.98108720017957,46.226151281521744],[-118.97209399654233,46.226151281521744],[-118.97209399654233,46.2171580778845],[-118.98108720017957,46.2171580778845]]]}},{"type":"Feature","properties":{"jobs":0,"pop":0,"pointCount":1,"homeWorkCommuteMedian":-1,"workHomeCommuteMedian":-1},"geometry":{"type":"Polygon","coordinates":[[[-118.97209399654233,46.14521244878653],[-118.97209399654233,46.15420565242378],[-118.96310079290508,46.15420565242378],[-118.96310079290508,46.14521244878653],[-118.97209399654233,46.14521244878653]]]}},{"type":"Feature","properties":{"jobs":145,"pop":125,"pointCount":1,"homeWorkCommuteMedian":0,"workHomeCommuteMedian":0},"geometry":{"type":"Polygon","coordinates":[[[-118.97209399654233,46.17219205969827],[-118.97209399654233,46.181185263335514],[-118.96310079290508,46.181185263335514],[-118.96310079290508,46.17219205969827],[-118.97209399654233,46.17219205969827]]]}},{"type":"Feature","properties":{"jobs":0,"pop":50,"pointCount":1,"homeWorkCommuteMedian":0,"workHomeCommuteMedian":-1},"geometry":{"type":"Polygon","coordinates":[[[-118.97209399654233,46.23514448515899],[-118.97209399654233,46.244137688796236],[-118.96310079290508,46.244137688796236],[-118.96310079290508,46.23514448515899],[-118.97209399654233,46.23514448515899]]]}},{"type":"Feature","properties":{"jobs":0,"pop":20,"pointCount":1,"homeWorkCommuteMedian":0,"workHomeCommuteMedian":-1},"geometry":{"type":"Polygon","coordinates":[[[-118.97209399654233,46.29809691061971],[-118.97209399654233,46.30709011425696],[-118.96310079290508,46.30709011425696],[-118.96310079290508,46.29809691061971],[-118.97209399654233,46.29809691061971]]]}},{"type":"Feature","properties":{"jobs":45,"pop":0,"pointCount":1,"homeWorkCommuteMedian":-1,"workHomeCommuteMedian":0},"geometry":{"type":"Polygon","coordinates":[[[-118.96310079290508,46.199171670610006],[-118.96310079290508,46.20816487424725],[-118.95410758926784,46.20816487424725],[-118.95410758926784,46.199171670610006],[-118.96310079290508,46.199171670610006]]]}},{"type":"Feature","properties":{"jobs":20,"pop":150,"pointCount":1,"homeWorkCommuteMedian":0,"workHomeCommuteMedian":0},"geometry":{"type":"Polygon","coordinates":[[[-118.96310079290508,46.25313089243348],[-118.96310079290508,46.26212409607073],[-118.95410758926784,46.26212409607073],[-118.95410758926784,46.25313089243348],[-118.96310079290508,46.25313089243348]]]}},{"type":"Feature","properties":{"jobs":5,"pop":0,"pointCount":1,"homeWorkCommuteMedian":-1,"workHomeCommuteMedian":0},"geometry":{"type":"Polygon","coordinates":[[[-118.95410758926784,46.181185263335514],[-118.95410758926784,46.19017846697276],[-118.94511438563059,46.19017846697276],[-118.94511438563059,46.181185263335514],[-118.95410758926784,46.181185263335514]]]}},{"type":"Feature","properties":{"jobs":0,"pop":0,"pointCount":1,"homeWorkCommuteMedian":-1,"workHomeCommuteMedian":-1},"geometry":{"type":"Polygon","coordinates":[[[-118.94511438563059,46.12722604151204],[-118.94511438563059,46.136219245149285],[-118.93612118199334,46.136219245149285],[-118.93612118199334,46.12722604151204],[-118.94511438563059,46.12722604151204]]]}},{"type":"Feature","properties":{"jobs":0,"pop":0,"pointCount":1,"homeWorkCommuteMedian":-1,"workHomeCommuteMedian":-1},"geometry":{"type":"Polygon","coordinates":[[[-118.94511438563059,46.14521244878653],[-118.94511438563059,46.15420565242378],[-118.93612118199334,46.15420565242378],[-118.93612118199334,46.14521244878653],[-118.94511438563059,46.14521244878653]]]}},{"type":"Feature","properties":{"jobs":0,"pop":0,"pointCount":1,"homeWorkCommuteMedian":-1,"workHomeCommuteMedian":-1},"geometry":{"type":"Polygon","coordinates":[[[-118.94511438563059,46.16319885606102],[-118.94511438563059,46.17219205969827],[-118.93612118199334,46.17219205969827],[-118.93612118199334,46.16319885606102],[-118.94511438563059,46.16319885606102]]]}},{"type":"Feature","properties":{"jobs":75,"pop":5,"pointCount":1,"homeWorkCommuteMedian":0,"workHomeCommuteMedian":0},"geometry":{"type":"Polygon","coordinates":[[[-118.94511438563059,46.199171670610006],[-118.94511438563059,46.20816487424725],[-118.93612118199334,46.20816487424725],[-118.93612118199334,46.199171670610006],[-118.94511438563059,46.199171670610006]]]}},{"type":"Feature","properties":{"jobs":0,"pop":30,"pointCount":1,"homeWorkCommuteMedian":0,"workHomeCommuteMedian":-1},"geometry":{"type":"Polygon","coordinates":[[[-118.94511438563059,46.226151281521744],[-118.94511438563059,46.23514448515899],[-118.93612118199334,46.23514448515899],[-118.93612118199334,46.226151281521744],[-118.94511438563059,46.226151281521744]]]}},{"type":"Feature","properties":{"jobs":25,"pop":0,"pointCount":1,"homeWorkCommuteMedian":-1,"workHomeCommuteMedian":0},"geometry":{"type":"Polygon","coordinates":[[[-118.91813477471885,46.136219245149285],[-118.91813477471885,46.14521244878653],[-118.9091415710816,46.14521244878653],[-118.9091415710816,46.136219245149285],[-118.91813477471885,46.136219245149285]]]}}],"properties":{"residentWeightedNearestNeighborKm":{"p10":0.3872261292855209,"p25":0.48044011088541694,"p50":0.5814542937027098,"p75":0.7288051681288831,"p90":0.9880671085241535,"mean":0.6509740913253829},"workerWeightedNearestNeighborKm":{"p10":0.2799553342928899,"p25":0.36645732719173485,"p50":0.45065071848395577,"p75":0.7102303328253915,"p90":1.0117130450397538,"mean":0.6092658109856869},"commuteDistanceKm":{"p10":0,"p25":0,"p50":0,"p75":0,"p90":0,"mean":0},"residentCellDensity":{"p10":40,"p25":200,"p50":810,"p75":2075,"p90":3845,"mean":1560.4072398190044},"workerCellDensity":{"p10":45,"p25":150,"p50":530,"p75":1505,"p90":3470,"mean":1461.5086206896551},"detail":{"radiusKm":0.5118913900650286,"expectedPointSpacingKm":0.8651606752574784,"normalizedRadius":0.5916720497180317,"activityPerPoint":1036.0479041916167,"playableAreaKm2":640,"playableAreaPerPointKm2":1.9161676646706587,"playableCatchmentRadiusKm":0.7809834257206598,"localityScore":0.4441072544220141,"deaggregationScore":0.48392511991417736,"score":0.4635888872168198},"polycentrism":{"activity":{"score":0.9911051243621525,"continuousScore":0.5361471432370449,"detectedCenterCount":3,"effectiveCenterCount":2.9475635770941966,"largestCenterShare":0.38555513813431974,"bandwidthKm":1.3,"reliabilityScore":1,"supportLevel":"high","usedFallback":false,"topCenters":[{"longitude":-119.1077929198665,"latitude":46.226245839952846,"massShare":0.38555513813431974,"assignedMass":266835,"assignedPointCount":137,"prominenceRatio":0.9999999999995778},{"longitude":-119.21336703416054,"latitude":46.21928714370941,"massShare":0.3375476823488614,"assignedMass":233610,"assignedPointCount":119,"prominenceRatio":1},{"longitude":-119.275429858662,"latitude":46.28286910906384,"massShare":0.27689717951681886,"assignedMass":191635,"assignedPointCount":69,"prominenceRatio":0.9999999957256059}],"debug":{"rawPeakCount":14,"mergedPeakCount":13,"filteredPeakCount":3,"prominenceThreshold":0.22,"minPointsPerCenter":10,"rejectedCenters":[{"longitude":-119.14484411827533,"latitude":46.198358363003706,"massShare":0.20069934111663393,"assignedMass":138900,"assignedPointCount":52,"prominenceRatio":0.9999999292924063,"strongestCompetitorDistanceKm":7.471800343580483,"strongestCompetitorPotential":54792.04966012802,"localConsolidatedShare":0.3637946480175702,"localConsolidatedMass":251775,"localContributorCount":2,"localContributorDistancesKm":[4.992162885554658],"rejectionReasons":["too_close_for_protected_share_center"]},{"longitude":-119.18203776617635,"latitude":46.26882008573248,"massShare":0.13130707432666744,"assignedMass":90875,"assignedPointCount":34,"prominenceRatio":0.9999983053384066,"strongestCompetitorDistanceKm":6.767593100554765,"strongestCompetitorPotential":54792.04966012802,"localConsolidatedShare":0.13130707432666744,"localConsolidatedMass":90875,"localContributorCount":1,"localContributorDistancesKm":[],"rejectionReasons":["not_dominant_local_peak","too_close_for_low_share_center"]},{"longitude":-119.29123697582793,"latitude":46.24216883185118,"massShare":0.08600161831002197,"assignedMass":59520,"assignedPointCount":26,"prominenceRatio":0.9926006864891616,"strongestCompetitorDistanceKm":4.222754911751068,"strongestCompetitorPotential":53527.983433423135,"localConsolidatedShare":0.08600161831002197,"localConsolidatedMass":59520,"localContributorCount":1,"localContributorDistancesKm":[],"rejectionReasons":["not_dominant_local_peak","too_close_for_low_share_center"]},{"longitude":-118.90843604665025,"latitude":46.24361857207732,"massShare":0.008221592879435904,"assignedMass":5690,"assignedPointCount":2,"prominenceRatio":1,"strongestCompetitorDistanceKm":14.900260958162779,"strongestCompetitorPotential":48814.95905462407,"localConsolidatedShare":0.008221592879435904,"localConsolidatedMass":5690,"localContributorCount":1,"localContributorDistancesKm":[],"rejectionReasons":["below_min_points_per_center"]},{"longitude":-119.05193694242072,"latitude":46.168068053520116,"massShare":0.01876228181713097,"assignedMass":12985,"assignedPointCount":15,"prominenceRatio":0.9999999631558861,"strongestCompetitorDistanceKm":8.079957865007634,"strongestCompetitorPotential":48814.95905462407,"localConsolidatedShare":0.01876228181713097,"localConsolidatedMass":12985,"localContributorCount":1,"localContributorDistancesKm":[],"rejectionReasons":["below_secondary_share_floor"]},{"longitude":-118.99087113333103,"latitude":46.19903584161877,"massShare":0.010201132817015374,"assignedMass":7060,"assignedPointCount":11,"prominenceRatio":0.9999999999976391,"strongestCompetitorDistanceKm":9.90958762956088,"strongestCompetitorPotential":48814.95905462407,"localConsolidatedShare":0.010201132817015374,"localConsolidatedMass":7060,"localContributorCount":1,"localContributorDistancesKm":[],"rejectionReasons":["below_secondary_share_floor"]},{"longitude":-119.11499992311829,"latitude":46.30519548010753,"massShare":0.005375101144376373,"assignedMass":3720,"assignedPointCount":7,"prominenceRatio":0.9999997425476055,"strongestCompetitorDistanceKm":7.79985894667923,"strongestCompetitorPotential":48814.95905462407,"localConsolidatedShare":0.005375101144376373,"localConsolidatedMass":3720,"localContributorCount":1,"localContributorDistancesKm":[],"rejectionReasons":["below_min_points_per_center"]},{"longitude":-118.98931627476627,"latitude":46.25312913329816,"massShare":0.0016905560050861173,"assignedMass":1170,"assignedPointCount":7,"prominenceRatio":0.9999999960036575,"strongestCompetitorDistanceKm":8.930085978905263,"strongestCompetitorPotential":48814.95905462407,"localConsolidatedShare":0.0016905560050861173,"localConsolidatedMass":1170,"localContributorCount":1,"localContributorDistancesKm":[],"rejectionReasons":["below_min_points_per_center"]},{"longitude":-118.92367372098767,"latitude":46.12815501728395,"massShare":0.0005851924632990405,"assignedMass":405,"assignedPointCount":2,"prominenceRatio":1,"strongestCompetitorDistanceKm":18.342582531515674,"strongestCompetitorPotential":48814.95905462407,"localConsolidatedShare":0.0005851924632990405,"localConsolidatedMass":405,"localContributorCount":1,"localContributorDistancesKm":[],"rejectionReasons":["below_min_points_per_center"]},{"longitude":-119.02181738633335,"latitude":46.31012046188889,"massShare":0.00028898393249335335,"assignedMass":200,"assignedPointCount":3,"prominenceRatio":0.9999999999835564,"strongestCompetitorDistanceKm":10.166174883358774,"strongestCompetitorPotential":48814.95905462407,"localConsolidatedShare":0.00028898393249335335,"localConsolidatedMass":200,"localContributorCount":1,"localContributorDistancesKm":[],"rejectionReasons":["below_min_points_per_center"]}]}}}}}
